"","zip","FDID","name","address","city","state","location","latitude","longitude","geometry"
"1","90003","","CA Office of Emergency Services North County Rescue","127 1/2 W 66TH ST","Los Angeles","CA","127 1/2 W 66TH ST Los Angeles, CA 90003",33.962714,-118.276,c(-118.276, 33.962714)
"2","90012","19105","Los Angeles Fire Department","200 N Main ST, Room 1800","Los Angeles","CA","200 N Main ST, Room 1800 Los Angeles, CA 90012",34.061611,-118.23944,c(-118.23944, 34.061611)
"3","90038","19260","Paramount Fire Department","5555 Melrose AVE BLDG 137","Los Angeles","CA","5555 Melrose AVE BLDG 137 Los Angeles, CA 90038",34.089459,-118.3285,c(-118.3285, 34.089459)
"4","90058","19205","City of Vernon Fire Department","4305 Santa Fe AVE","Vernon","CA","4305 Santa Fe AVE Vernon, CA 90058",34.000219,-118.22605,c(-118.22605, 34.000219)
"5","90063","19110","Los Angeles County Fire Department","1320 N Eastern AVE","Los Angeles","CA","1320 N Eastern AVE Los Angeles, CA 90063",34.045161,-118.1865,c(-118.1865, 34.045161)
"6","90095","19945","UCLA Fire","501 Westwood PLZ, 4TH FL","Los Angeles","CA","501 Westwood PLZ, 4TH FL Los Angeles, CA 90095",33.786594,-118.298662,c(-118.298662, 33.786594)
"7","90210","19025","Beverly Hills Fire Department","445 N Rexford DR","Beverly Hills","CA","445 N Rexford DR Beverly Hills, CA 90210",34.088808,-118.40612,c(-118.40612, 34.088808)
"8","90220","19040","Compton Fire Department","201 S Acacia AVE","Compton","CA","201 S Acacia AVE Compton, CA 90220",33.890566,-118.23666,c(-118.23666, 33.890566)
"9","90232","19050","Culver City Fire Department","9770 Culver BLVD","Culver City","CA","9770 Culver BLVD Culver City, CA 90232",34.021611,-118.39168,c(-118.39168, 34.021611)
"10","90241","19055","City of Downey Fire Department","11111 Brookshire AVE","Downey","CA","11111 Brookshire AVE Downey, CA 90241",33.942289,-118.12901,c(-118.12901, 33.942289)
"11","90245","19065","El Segundo Fire Department","314 Main ST","El Segundo","CA","314 Main ST El Segundo, CA 90245",33.921313,-118.40843,c(-118.40843, 33.921313)
"12","90254","19085","Hermosa Beach Fire Department","540 Pier AVE","Hermosa Beach","CA","540 Pier AVE Hermosa Beach, CA 90254",33.866314,-118.39968,c(-118.39968, 33.866314)
"13","90266","19120","Manhattan Beach Fire Department","400 15TH ST","Manhattan Beach","CA","400 15TH ST Manhattan Beach, CA 90266",33.88898,-118.40535,c(-118.40535, 33.88898)
"14","90277","19155","Redondo Beach Fire Department","401 S Broadway","Redondo Beach","CA","401 S Broadway Redondo Beach, CA 90277",33.828815,-118.38322,c(-118.38322, 33.828815)
"15","90401","19180","Santa Monica Fire Department","333 Olympic DR","Santa Monica","CA","333 Olympic DR Santa Monica, CA 90401",34.01491,-118.4922,c(-118.4922, 34.01491)
"16","90501","19200","Torrance Fire Department","1701 Crenshaw BLVD","Torrance","CA","1701 Crenshaw BLVD Torrance, CA 90501",33.828766,-118.31367,c(-118.31367, 33.828766)
"17","90631","30050","City of La Habra Fire Department","201 E La Habra  BLVD","La Habra","CA","201 E La Habra  BLVD La Habra, CA 90631",33.934513,-117.95159,c(-117.95159, 33.934513)
"18","90631","19225","La Habra Heights Fire Department","1245 N Hacienda RD","La Habra Heights","CA","1245 N Hacienda RD La Habra Heights, CA 90631",33.934513,-117.95159,c(-117.95159, 33.934513)
"19","90640","19130","Montebello Fire Department","600 N Montebello BLVD","Montebello","CA","600 N Montebello BLVD Montebello, CA 90640",34.014212,-118.11358,c(-118.11358, 34.014212)
"20","90670","19175","Santa Fe Springs Fire Department","11300 Greenstone AVE","Santa Fe Springs","CA","11300 Greenstone AVE Santa Fe Springs, CA 90670",33.933551,-118.06821,c(-118.06821, 33.933551)
"21","90704","19015","City of Avalon Fire Department","209 Metropole","Avalon","CA","209 Metropole Avalon, CA 90704",33.368642,-118.40835,c(-118.40835, 33.368642)
"22","90720","30835","Los Alamitos Joint Forces Training Base Fire Department","4250 Constitution AVE","Los Alamitos","CA","4250 Constitution AVE Los Alamitos, CA 90720",33.794028,-118.07218,c(-118.07218, 33.794028)
"23","90744","","Valero Wilmington Fire Department","2402 E Anaheim ST","Wilmington","CA","2402 E Anaheim ST Wilmington, CA 90744",33.784018,-118.25897,c(-118.25897, 33.784018)
"24","90807","19605","Boeing Fire Department, Long Beach Div","2401 E Wardlow RD","Long Beach","CA","2401 E Wardlow RD Long Beach, CA 90807",33.828366,-118.18235,c(-118.18235, 33.828366)
"25","90808","19100","Long Beach Fire Department","3205 N Lakewood BLVD","Long Beach","CA","3205 N Lakewood BLVD Long Beach, CA 90808",33.823316,-118.11329,c(-118.11329, 33.823316)
"26","91006","19010","Arcadia Fire Department","710 S Santa Anita AVE","Arcadia","CA","710 S Santa Anita AVE Arcadia, CA 91006",34.134057,-118.02662,c(-118.02662, 34.134057)
"27","91016","19125","Monrovia Fire Department","141 E Lemon AVE","Monrovia","CA","141 E Lemon AVE Monrovia, CA 91016",34.140806,-118.00184,c(-118.00184, 34.140806)
"28","91024","19185","Sierra Madre Fire Department","242 W Sierra Madre BLVD","Sierra Madre","CA","242 W Sierra Madre BLVD Sierra Madre, CA 91024",34.164806,-118.0509,c(-118.0509, 34.164806)
"29","91030","19195","South Pasadena Fire Department","817 Mound AVE","South Pasadena","CA","817 Mound AVE South Pasadena, CA 91030",34.112958,-118.15577,c(-118.15577, 34.112958)
"30","91101","19145","Pasadena Fire Department","199 S Los Robles AVE STE 550","Pasadena","CA","199 S Los Robles AVE STE 550 Pasadena, CA 91101",34.146607,-118.1391,c(-118.1391, 34.146607)
"31","91108","19170","San Marino Fire Department","2200 Huntington DR","San Marino","CA","2200 Huntington DR San Marino, CA 91108",34.122658,-118.11296,c(-118.11296, 34.122658)
"32","91204","19075","Glendale Fire Department","421 Oak ST","Glendale","CA","421 Oak ST Glendale, CA 91204",34.135259,-118.25948,c(-118.25948, 34.135259)
"33","91352","19096","La Tuna Canyon Fire & Rescue","10100 La Tuna Canyon RD","La Tuna Canyon","CA","10100 La Tuna Canyon RD La Tuna Canyon, CA 91352",34.224089,-118.37563,c(-118.37563, 34.224089)
"34","91502","19030","City of Burbank Fire Department","311 E Orange Grove AVE","Burbank","CA","311 E Orange Grove AVE Burbank, CA 91502",34.177606,-118.30954,c(-118.30954, 34.177606)
"35","91505","19992","Walt Disney Studios Fire Department","500 N Buena Vista ST","Burbank","CA","500 N Buena Vista ST Burbank, CA 91505",34.166906,-118.34366,c(-118.34366, 34.166906)
"36","91522","19035","Warner Bros Studios Fire Department","4000 Warner BLVD","Burbank","CA","4000 Warner BLVD Burbank, CA 91522",33.786594,-118.298662,c(-118.298662, 33.786594)
"37","91709","36058","Chino Valley Independent Fire District","14011 City Center DR","Chino Hills","CA","14011 City Center DR Chino Hills, CA 91709",33.975267,-117.72305,c(-117.72305, 33.975267)
"38","91730","36010","Rancho Cucamonga Fire Protection District","10500 Civic Center DR","Rancho Cucamonga","CA","10500 Civic Center DR Rancho Cucamonga, CA 91730",34.104555,-117.58734,c(-117.58734, 34.104555)
"39","91733","19565","Angeles National Forest Fire Lookout Association","PO Box 1409","Arcadia","CA","PO Box 1409 Arcadia, CA 91733",34.05051,-118.04834,c(-118.04834, 34.05051)
"40","91750","19095","La Verne Fire Department","2061 3RD ST","La Verne","CA","2061 3RD ST La Verne, CA 91750",34.117047,-117.77097,c(-117.77097, 34.117047)
"41","91754","19135","Monterey Park Fire Department","350 W Newmark AVE","Monterey Park","CA","350 W Newmark AVE Monterey Park, CA 91754",34.048207,-118.14161,c(-118.14161, 34.048207)
"42","91761","36275","Ontario International Airport Fire Rescue","1230 Tower ST","Ontario","CA","1230 Tower ST Ontario, CA 91761",34.036085,-117.6086,c(-117.6086, 34.036085)
"43","91763","36145","Monte Vista Fire Protection District","8901 Monte Vista AVE","Montclair","CA","8901 Monte Vista AVE Montclair, CA 91763",34.07041,-117.69938,c(-117.69938, 34.07041)
"44","91763","36140","Montclair Fire Department","8901 Monte Vista AVE","Montclair","CA","8901 Monte Vista AVE Montclair, CA 91763",34.07041,-117.69938,c(-117.69938, 34.07041)
"45","91764","36170","Ontario Fire Department","415 E B ST","Ontario","CA","415 E B ST Ontario, CA 91764",34.077327,-117.6222,c(-117.6222, 34.077327)
"46","91768","19490","Lanterman Developmental Center ","3530 Pomona  BLVD","Pomona","CA","3530 Pomona  BLVD Pomona, CA 91768",34.06521,-117.77932,c(-117.77932, 34.06521)
"47","91776","19165","San Gabriel Fire Department","1303 S Del Mar AVE","San Gabriel","CA","1303 S Del Mar AVE San Gabriel, CA 91776",34.089059,-118.0951,c(-118.0951, 34.089059)
"48","91786","36215","Upland Fire Department","475 N 2ND AVE","Upland","CA","475 N 2ND AVE Upland, CA 91786",34.101659,-117.65776,c(-117.65776, 34.101659)
"49","91790","19210","West Covina Fire Department","1444 W Garvey AVE S #218","West Covina","CA","1444 W Garvey AVE S #218 West Covina, CA 91790",34.068059,-117.93835,c(-117.93835, 34.068059)
"50","91801","19005","Alhambra Fire Department","301 N 1ST ST","Alhambra","CA","301 N 1ST ST Alhambra, CA 91801",34.090409,-118.127,c(-118.127, 34.090409)
"51","91901","37235","Viejas Fire Department","1 Viejas Grade RD","Alpine","CA","1 Viejas Grade RD Alpine, CA 91901",32.823102,-116.73864,c(-116.73864, 32.823102)
"52","91901","37005","Alpine Fire Protection District","1364 Tavern RD","Alpine","CA","1364 Tavern RD Alpine, CA 91901",32.823102,-116.73864,c(-116.73864, 32.823102)
"53","91902","37010","Bonita Sunnyside Fire Protection District","4900 Bonita RD","Bonita","CA","4900 Bonita RD Bonita, CA 91902",32.663803,-117.02456,c(-117.02456, 32.663803)
"54","91906","37024","Campo Reservation Fire Protection District","36210 Church RD","Campo","CA","36210 Church RD Campo, CA 91906",32.664307,-116.46513,c(-116.46513, 32.664307)
"55","91910","37030","Chula Vista Fire Department","276 4TH AVE BLDG C","Chula Vista","CA","276 4TH AVE BLDG C Chula Vista, CA 91910",32.638654,-117.06686,c(-117.06686, 32.638654)
"56","91932","37085","Imperial Beach Fire Department","865 Imperial Beach BLVD","Imperial Beach","CA","865 Imperial Beach BLVD Imperial Beach, CA 91932",32.579555,-117.11708,c(-117.11708, 32.579555)
"57","91942","37095","La Mesa Fire Department","8054 Allison AVE","La Mesa","CA","8054 Allison AVE La Mesa, CA 91942",32.785,-117.0186,c(-117.0186, 32.785)
"58","91945","37100","Lemon Grove Fire Department","7853 Central AVE","Lemon Grove","CA","7853 Central AVE Lemon Grove, CA 91945",32.733451,-117.0337,c(-117.0337, 32.733451)
"59","91950","37110","National City Fire Department","343 E 16TH ST","National City","CA","343 E 16TH ST National City, CA 91950",32.670903,-117.09272,c(-117.09272, 32.670903)
"60","91978","37165","San Miguel Consolidated Fire Protection District","2850 Via Orange WAY","Spring Valley","CA","2850 Via Orange WAY Spring Valley, CA 91978",32.732539,-116.95091,c(-116.95091, 32.732539)
"61","92004","37015","Borrego Springs Fire Protection District","2324 Stirrup RD","Borrego Springs","CA","2324 Stirrup RD Borrego Springs, CA 92004",33.184028,-116.26597,c(-116.26597, 33.184028)
"62","92014","37050","Del Mar Fire Department","2200 Jimmy Durante BLVD","Del Mar","CA","2200 Jimmy Durante BLVD Del Mar, CA 92014",32.961812,-117.25967,c(-117.25967, 32.961812)
"63","92019","37224","Sycuan Fire Department","5449 Sycuan RD","El Cajon","CA","5449 Sycuan RD El Cajon, CA 92019",32.788736,-116.90487,c(-116.90487, 32.788736)
"64","92019","37555","California Department of Forestry and Fire Protection","2249 Jamacha  RD","El Cajon","CA","2249 Jamacha  RD El Cajon, CA 92019",32.788736,-116.90487,c(-116.90487, 32.788736)
"65","92020","37055","El Cajon Fire Department","100 E Lexington AVE","El Cajon","CA","100 E Lexington AVE El Cajon, CA 92020",32.7991,-116.97334,c(-116.97334, 32.7991)
"66","92020","37084","Heartland Fire and Rescue","100 E Lexington AVE","El Cajon","CA","100 E Lexington AVE El Cajon, CA 92020",32.7991,-116.97334,c(-116.97334, 32.7991)
"67","92021","37020","East County Fire Prevention District","1811 Suncrest BLVD","El Cajon","CA","1811 Suncrest BLVD El Cajon, CA 92021",32.8201,-116.91234,c(-116.91234, 32.8201)
"68","92024","37065","Encinitas Fire Department","505 S Vulcan AVE","Encinitas","CA","505 S Vulcan AVE Encinitas, CA 92024",33.053092,-117.26855,c(-117.26855, 33.053092)
"69","92025","37070","Escondido Fire Department","201 N Broadway","Escondido","CA","201 N Broadway Escondido, CA 92025",33.106862,-117.07077,c(-117.07077, 33.106862)
"70","92026","37148","Deer Springs Fire Protection District","8709 Circle R DR","Escondido","CA","8709 Circle R DR Escondido, CA 92026",33.181543,-117.11136,c(-117.11136, 33.181543)
"71","92028","37075","North County Fire Protection District","330 S Main AVE","Fallbrook","CA","330 S Main AVE Fallbrook, CA 92028",33.380359,-117.20605,c(-117.20605, 33.380359)
"72","92028","37052","De Luz Volunteer Fire Department","39536 Daily RD","Fallbrook","CA","39536 Daily RD Fallbrook, CA 92028",33.380359,-117.20605,c(-117.20605, 33.380359)
"73","92029","37057","Elfin Forest/ Harmony Grove Fire Department","20223 Elfin Forest RD","Escondido","CA","20223 Elfin Forest RD Escondido, CA 92029",33.087868,-117.11558,c(-117.11558, 33.087868)
"74","92036","","CDF Fire- Julian Battalion","1587 HWY 78","Julian","CA","1587 HWY 78 Julian, CA 92036",33.02757,-116.53109,c(-116.53109, 33.02757)
"75","92040","37090","Lakeside Fire Protection District","12216 Lakeside AVE","Lakeside","CA","12216 Lakeside AVE Lakeside, CA 92040",32.873849,-116.90477,c(-116.90477, 32.873849)
"76","92040","37007","Barona Fire Protection District","1112 Barona RD","Lakeside","CA","1112 Barona RD Lakeside, CA 92040",32.873849,-116.90477,c(-116.90477, 32.873849)
"77","92054","37115","Oceanside Fire Department","300 N Coast HWY","Oceanside","CA","300 N Coast HWY Oceanside, CA 92054",33.202463,-117.36077,c(-117.36077, 33.202463)
"78","92055","37820","Camp Pendleton Fire Department","PO Box 555211","Camp Pendleton","CA","PO Box 555211 Camp Pendleton, CA 92055",33.016928,-116.846046,c(-116.846046, 33.016928)
"79","92059","37113","Pala Fire Department","Pala Temecula Road","Pala","CA","Pala Temecula Road Pala, CA 92059",33.369249,-117.07236,c(-117.07236, 33.369249)
"80","92061","37215","Pauma Fire Department","800 Pauma Reservation RD","Pauma Valley","CA","800 Pauma Reservation RD Pauma Valley, CA 92061",33.311881,-116.96499,c(-116.96499, 33.311881)
"81","92064","37125","Poway Fire Department","13050 Community RD","Poway","CA","13050 Community RD Poway, CA 92064",32.973645,-117.03701,c(-117.03701, 32.973645)
"82","92065","37130","Ramona Fire Department","829 San Vicente RD","Ramona","CA","829 San Vicente RD Ramona, CA 92065",33.035844,-116.8513,c(-116.8513, 33.035844)
"83","92066","37940","Montezuma Valley Volunteer Fire Department","37370 Montezuma Valley RD","Ranchita","CA","37370 Montezuma Valley RD Ranchita, CA 92066",33.209313,-116.54244,c(-116.54244, 33.209313)
"84","92067","37135","Rancho Santa Fe Fire Protection District","16936 El Fuego","Rancho Santa Fe","CA","16936 El Fuego Rancho Santa Fe, CA 92067",33.016492,-117.20264,c(-117.20264, 33.016492)
"85","92069","37145","San Marcos Fire Department","1 Civic Center DR","San Marcos","CA","1 Civic Center DR San Marcos, CA 92069",33.144908,-117.17128,c(-117.17128, 33.144908)
"86","92070","37101","Mesa Grande Fire Department","2600 Mesa Grande RD","Santa Ysabel","CA","2600 Mesa Grande RD Santa Ysabel, CA 92070",33.166768,-116.71061,c(-116.71061, 33.166768)
"87","92071","37150","Santee Fire Department","10601 N Magnolia AVE","Santee","CA","10601 N Magnolia AVE Santee, CA 92071",32.84681,-116.98983,c(-116.98983, 32.84681)
"88","92075","37160","Solana Beach Fire Department","500 Lomas Santa Fe DR","Solana Beach","CA","500 Lomas Santa Fe DR Solana Beach, CA 92075",32.997543,-117.26087,c(-117.26087, 32.997543)
"89","92082","37175","Valley Center Fire Protection District","28234 Lilac RD","Valley Center","CA","28234 Lilac RD Valley Center, CA 92082",33.261748,-117.01027,c(-117.01027, 33.261748)
"90","92082","37219","Rincon Fire Department","33485 Valley Center RD","Valley Center","CA","33485 Valley Center RD Valley Center, CA 92082",33.261748,-117.01027,c(-117.01027, 33.261748)
"91","92082","37152","San Pasqual Reservation Fire Department","16150 Kumeyaay WAY","Valley Center","CA","16150 Kumeyaay WAY Valley Center, CA 92082",33.261748,-117.01027,c(-117.01027, 33.261748)
"92","92084","37170","Vista Fire Department","200 Civic Center DR","Vista","CA","200 Civic Center DR Vista, CA 92084",33.213309,-117.21474,c(-117.21474, 33.213309)
"93","92101","37140","City of San Diego Fire-Rescue Department","1010 2ND AVE STE 400","San Diego","CA","1010 2ND AVE STE 400 San Diego, CA 92101",32.719601,-117.16246,c(-117.16246, 32.719601)
"94","92113","37240","General Dynamics NASSCO - Fire Department","2798 East Harbor DR","San Diego","CA","2798 East Harbor DR San Diego, CA 92113",32.697402,-117.12001,c(-117.12001, 32.697402)
"95","92118","37045","Coronado Fire Department","1001 6TH ST","Coronado","CA","1001 6TH ST Coronado, CA 92118",32.682727,-117.17441,c(-117.17441, 32.682727)
"96","92123","37047","San Diego County Fire Authority","5510 Overland Drive","San Diego","CA","5510 Overland Drive San Diego, CA 92123",32.803799,-117.13595,c(-117.13595, 32.803799)
"97","92138","37818","CNRSW Federal Fire Department","PO Box 81226","San Diego","CA","PO Box 81226 San Diego, CA 92138",33.016928,-116.846046,c(-116.846046, 33.016928)
"98","92145","37811","Miramar Fire Department","PO Box 452006","San Diego","CA","PO Box 452006 San Diego, CA 92145",32.889139,-117.100486,c(-117.100486, 32.889139)
"99","92179","37410","R.J. Donovan Correctional Facility Fire Department","480 Alta RD","San Diego","CA","480 Alta RD San Diego, CA 92179",32.572602,-116.918724,c(-116.918724, 32.572602)
"100","92201","33050","Indio Fire Service","46-990 Jackson ST","Indio","CA","46-990 Jackson ST Indio, CA 92201",33.715271,-116.235,c(-116.235, 33.715271)
"101","92203","33021","Cabazon Tribal Fire Department","84245 Indio Springs  PKWY","Indio","CA","84245 Indio Springs  PKWY Indio, CA 92203",33.75307,-116.24688,c(-116.24688, 33.75307)
"102","92210","33100","Indian Wells Fire Service","44-900 El Dorado DR","Indian Wells","CA","44-900 El Dorado DR Indian Wells, CA 92210",33.70129,-116.34148,c(-116.34148, 33.70129)
"103","92220","33053","Morongo Fire Department","11581 Potrero RD","Banning","CA","11581 Potrero RD Banning, CA 92220",33.920803,-116.87897,c(-116.87897, 33.920803)
"104","92220","33005","Banning Fire Service","172 N Murray ST","Banning","CA","172 N Murray ST Banning, CA 92220",33.920803,-116.87897,c(-116.87897, 33.920803)
"105","92220","33016","Calimesa Fire Service","PO Box 998","Banning","CA","PO Box 998 Banning, CA 92220",33.920803,-116.87897,c(-116.87897, 33.920803)
"106","92220","33010","Beaumont Fire Service","PO Box 998","Banning","CA","PO Box 998 Banning, CA 92220",33.920803,-116.87897,c(-116.87897, 33.920803)
"107","92225","33415","Chuckawalla/Ironwood Fire Department","19025 Wiley's Well RD","Blythe","CA","19025 Wiley's Well RD Blythe, CA 92225",33.628333,-114.61905,c(-114.61905, 33.628333)
"108","92227","13005","City of Brawley Fire Department","1505 Jones ST","Brawley","CA","1505 Jones ST Brawley, CA 92227",32.98975,-115.50475,c(-115.50475, 32.98975)
"109","92231","13010","Calexico Fire Department","2237 A Tirado AVE","Calexico","CA","2237 A Tirado AVE Calexico, CA 92231",32.683491,-115.48277,c(-115.48277, 32.683491)
"110","92233","13015","Calipatria Fire Department","125 N Park AVE","Calipatria","CA","125 N Park AVE Calipatria, CA 92233",33.131764,-115.51208,c(-115.51208, 33.131764)
"111","92234","33018","Cathedral City Fire Department","32100 Desert Vista RD","Cathedral City","CA","32100 Desert Vista RD Cathedral City, CA 92234",33.807761,-116.46473,c(-116.46473, 33.807761)
"112","92236","33020","Coachella Fire Department","1377 6TH ST","Coachella","CA","1377 6TH ST Coachella, CA 92236",33.679872,-116.17656,c(-116.17656, 33.679872)
"113","92240","33030","Desert Hot Springs Fire Service","65958 Pierson BLVD","Desert Hot Springs","CA","65958 Pierson BLVD Desert Hot Springs, CA 92240",33.952303,-116.50804,c(-116.50804, 33.952303)
"114","92243","13020","El Centro Fire Department","1910 N Waterman AVE","El Centro","CA","1910 N Waterman AVE El Centro, CA 92243",32.783359,-115.57746,c(-115.57746, 32.783359)
"115","92250","13030","Holtville Fire Department","549 Fern AVE","Holtville","CA","549 Fern AVE Holtville, CA 92250",32.800259,-115.35369,c(-115.35369, 32.800259)
"116","92251","13025","Imperial County Fire Department","2514 La Brucherie RD","Imperial","CA","2514 La Brucherie RD Imperial, CA 92251",32.853471,-115.58942,c(-115.58942, 32.853471)
"117","92253","33052","La Quinta Fire Service","44555 Adams ST","La Quinta","CA","44555 Adams ST La Quinta, CA 92253",33.675373,-116.29649,c(-116.29649, 33.675373)
"118","92256","36150","Morongo Valley Fire Department","11207 Ocotillo ST","Morongo Valley","CA","11207 Ocotillo ST Morongo Valley, CA 92256",34.066626,-116.55951,c(-116.55951, 34.066626)
"119","92257","13040","Niland Fire District","8071 Luxor  AVE","Niland","CA","8071 Luxor  AVE Niland, CA 92257",33.330929,-115.61583,c(-115.61583, 33.330929)
"120","92260","33105","Palm Desert Fire Service","44-400 Town Center WAY","Palm Desert","CA","44-400 Town Center WAY Palm Desert, CA 92260",33.715672,-116.38496,c(-116.38496, 33.715672)
"121","92262","33065","Palm Springs Fire Department","300 N El Cielo RD","Palm Springs","CA","300 N El Cielo RD Palm Springs, CA 92262",33.842984,-116.54344,c(-116.54344, 33.842984)
"122","92268","","Pioneertown Station 38","5380 Mountain View","Pioneertown","CA","5380 Mountain View Pioneertown, CA 92268",34.203249,-116.56565,c(-116.56565, 34.203249)
"123","92270","33110","Rancho Mirage Fire Service","70-801 HWY 111","Rancho Mirage","CA","70-801 HWY 111 Rancho Mirage, CA 92270",33.762944,-116.42249,c(-116.42249, 33.762944)
"124","92275","13050","Salton Community Services District Fire Dept","2152 Riviera CT","Salton City","CA","2152 Riviera CT Salton City, CA 92275",33.289347,-115.9565,c(-115.9565, 33.289347)
"125","92277","36245","Wonder Valley Fire Department","80526 Amboy RD","Twentynine Palms","CA","80526 Amboy RD Twentynine Palms, CA 92277",34.165696,-116.03343,c(-116.03343, 34.165696)
"126","92277","36210","Twentynine Palms Fire Department","6560 Adobe RD","Twentynine Palms","CA","6560 Adobe RD Twentynine Palms, CA 92277",34.165696,-116.03343,c(-116.03343, 34.165696)
"127","92278","36825","Combat Center Fire Department","13TH ST","Twentynine Palms","CA","13TH ST Twentynine Palms, CA 92278",34.360235,-116.20964,c(-116.20964, 34.360235)
"128","92281","13060","Westmorland Fire Department","230 W Main ST","Westmorland","CA","230 W Main ST Westmorland, CA 92281",33.037061,-115.6194,c(-115.6194, 33.037061)
"129","92283","13065","Winter Haven Fire Protection District","495 S Third AVE","Winter Haven","CA","495 S Third AVE Winter Haven, CA 92283",32.786759,-114.62591,c(-114.62591, 32.786759)
"130","92307","36017","Fairview Valley Fire Department","15215 Sherri LN","Apple Valley","CA","15215 Sherri LN Apple Valley, CA 92307",34.538622,-117.17729,c(-117.17729, 34.538622)
"131","92307","36015","Apple Valley Fire Protection District","22400 Headquarters AVE","Apple Valley","CA","22400 Headquarters AVE Apple Valley, CA 92307",34.538622,-117.17729,c(-117.17729, 34.538622)
"132","92310","36750","Fort Irwin Fire Department","BLDG 6101 Southloop RD","Fort Irwin","CA","BLDG 6101 Southloop RD Fort Irwin, CA 92310",35.262763,-116.69452,c(-116.69452, 35.262763)
"133","92311","36035","Barstow Fire Protection District","861 Barstow RD","Barstow","CA","861 Barstow RD Barstow, CA 92311",34.894181,-117.03636,c(-117.03636, 34.894181)
"134","92311","36820","Fire & Emergency Services, MCLB Barstow","236 Boll AVE","Barstow","CA","236 Boll AVE Barstow, CA 92311",34.894181,-117.03636,c(-117.03636, 34.894181)
"135","92314","36040","Big Bear City Fire Department","301 W Big Bear BLVD","Big Bear City","CA","301 W Big Bear BLVD Big Bear City, CA 92314",34.255388,-116.85442,c(-116.85442, 34.255388)
"136","92314","36250","Baldwin Lake Volunteer Fire Department","45360 Lucky Baldwin Ranch RD","Baldwin Lake","CA","45360 Lucky Baldwin Ranch RD Baldwin Lake, CA 92314",34.255388,-116.85442,c(-116.85442, 34.255388)
"137","92315","36045","Big Bear Lake Fire Protection District","41090 Big Bear BLVD","Big Bear Lake","CA","41090 Big Bear BLVD Big Bear Lake, CA 92315",34.241295,-116.90328,c(-116.90328, 34.241295)
"138","92324","36065","City of Colton Fire Department","303 E 'E' ST","Colton","CA","303 E 'E' ST Colton, CA 92324",34.061931,-117.31995,c(-117.31995, 34.061931)
"139","92325","36070","Crest Forest Fire Protection District","23407 Crest Forest DR","Crestline","CA","23407 Crest Forest DR Crestline, CA 92325",34.242567,-117.28654,c(-117.28654, 34.242567)
"140","92327","36080","Daggett Volunteer Fire Department","33702  2nd  ST","Daggett","CA","33702  2nd  ST Daggett, CA 92327",34.866837,-116.86379,c(-116.86379, 34.866837)
"141","92328","14017","Death Valley National Park","PO Box 579","Death Valley","CA","PO Box 579 Death Valley, CA 92328",35.945641,-117.20296,c(-117.20296, 35.945641)
"142","92346","36199","San Manuel Band of Mission Indians Fire Department","26540 Indian Service RD","Highland","CA","26540 Indian Service RD Highland, CA 92346",34.12716,-117.20073,c(-117.20073, 34.12716)
"143","92346","36107","Highland Fire Department","27215 Base Line","Highland","CA","27215 Base Line Highland, CA 92346",34.12716,-117.20073,c(-117.20073, 34.12716)
"144","92354","36125","Loma Linda Fire Department","25541 Barton RD","Loma Linda","CA","25541 Barton RD Loma Linda, CA 92354",34.050764,-117.25327,c(-117.25327, 34.050764)
"145","92365","36165","Newberry Springs Fire Department","30884 Newberry Rd","Newberry Springs","CA","30884 Newberry Rd Newberry Springs, CA 92365",34.896333,-116.63644,c(-116.63644, 34.896333)
"146","92369","36412","Patton State Hospital Fire Department","3102 E Highland AVE","Patton","CA","3102 E Highland AVE Patton, CA 92369",34.839964,-115.967051,c(-115.967051, 34.839964)
"147","92373","36180","City of Redlands Fire Department","35 Cajon ST STE 12","Redlands","CA","35 Cajon ST STE 12 Redlands, CA 92373",34.034714,-117.17305,c(-117.17305, 34.034714)
"148","92376","36185","Rialto Fire Department","131 S Willow AVE","Rialto","CA","131 S Willow AVE Rialto, CA 92376",34.109511,-117.37617,c(-117.37617, 34.109511)
"149","92382","36190","Running Springs Fire Department","31250 Hilltop  BLVD","Running Springs","CA","31250 Hilltop  BLVD Running Springs, CA 92382",34.205626,-117.10499,c(-117.10499, 34.205626)
"150","92382","36025","Arrowbear Lake Fire Department","33045 Highway 18","Arrowbear Lake","CA","33045 Highway 18 Arrowbear Lake, CA 92382",34.205626,-117.10499,c(-117.10499, 34.205626)
"151","92389","14042","Southern Inyo Fire Protection District","410 Tecopa Hot Springs RD","Tecopa","CA","410 Tecopa Hot Springs RD Tecopa, CA 92389",35.848556,-116.22627,c(-116.22627, 35.848556)
"152","92393","36220","Victorville Fire Department","14343 Civic DR","Victorville","CA","14343 Civic DR Victorville, CA 92393",34.839964,-115.967051,c(-115.967051, 34.839964)
"153","92398","36230","Yermo-Calico Fire Department","38321 Yermo RD","Yermo","CA","38321 Yermo RD Yermo, CA 92398",34.909491,-116.84058,c(-116.84058, 34.909491)
"154","92410","36195","City of San Bernardino Fire Department","200 E 3RD ST","San Bernardino","CA","200 E 3RD ST San Bernardino, CA 92410",34.106965,-117.2975,c(-117.2975, 34.106965)
"155","92415","36193","San Bernardino County Fire Protection District","157 W 5TH ST, FL 2","San Bernardino","CA","157 W 5TH ST, FL 2 San Bernardino, CA 92415",34.839964,-115.967051,c(-115.967051, 34.839964)
"156","92504","33075","City of Riverside Fire Department","3085 St Lawerence ST","Riverside","CA","3085 St Lawerence ST Riverside, CA 92504",33.926315,-117.40937,c(-117.40937, 33.926315)
"157","92509","33080","Rubidoux Fire Service","3590 Rubidoux BLVD","Jurupa Valley","CA","3590 Rubidoux BLVD Jurupa Valley, CA 92509",33.998751,-117.44695,c(-117.44695, 33.998751)
"158","92518","00MAB","March Field Fire Department","2685 Graeber ST","March Air Reserve Base","CA","2685 Graeber ST March Air Reserve Base, CA 92518",33.891084,-117.2726,c(-117.2726, 33.891084)
"159","92521","33905","University of California Riverside","UCR EH&S","Riverside","CA","UCR EH&S Riverside, CA 92521",33.752886,-116.055617,c(-116.055617, 33.752886)
"160","92530","33035","Lake Elsinore Fire Service","410 W Graham AVE","Lake Elsinore","CA","410 W Graham AVE Lake Elsinore, CA 92530",33.675893,-117.34946,c(-117.34946, 33.675893)
"161","92530","33070","Perris Fire Services","410 W Graham AVE","Elsinore","CA","410 W Graham AVE Elsinore, CA 92530",33.675893,-117.34946,c(-117.34946, 33.675893)
"162","92539","","Anza Volunteer Fire Department","56560 Highway 371","Anza","CA","56560 Highway 371 Anza, CA 92539",33.55055,-116.67362,c(-116.67362, 33.55055)
"163","92543","33040","City of Hemet Fire Department","510 E Florida AVE","Hemet","CA","510 E Florida AVE Hemet, CA 92543",33.73542,-116.97401,c(-116.97401, 33.73542)
"164","92549","33045","Idyllwild Fire Protection District","54160 Marantha DR","Idyllwild","CA","54160 Marantha DR Idyllwild, CA 92549",33.750795,-116.72562,c(-116.72562, 33.750795)
"165","92552","33054","Moreno Valley Fire Service","22850 Calle San Juan de Los Lagos","Moreno Valley","CA","22850 Calle San Juan de Los Lagos Moreno Valley, CA 92552",33.752886,-116.055617,c(-116.055617, 33.752886)
"166","92562","33055","Murrieta Fire Department","41825 Juniper ST","Murrieta","CA","41825 Juniper ST Murrieta, CA 92562",33.568617,-117.25264,c(-117.25264, 33.568617)
"167","92570","33090","Riverside County Fire Department","210 W San Jacinto AVE","Perris","CA","210 W San Jacinto AVE Perris, CA 92570",33.784051,-117.29812,c(-117.29812, 33.784051)
"168","92570","33555","Cal Fire - Riverside County Fire Department","210 W San Jacinto AVE","Perris","CA","210 W San Jacinto AVE Perris, CA 92570",33.784051,-117.29812,c(-117.29812, 33.784051)
"169","92583","33088","Soboba Band of Luiseno Indians Fire Department","23121 Soboba RD","San Jacinto","CA","23121 Soboba RD San Jacinto, CA 92583",33.788491,-116.95125,c(-116.95125, 33.788491)
"170","92583","33085","San Jacinto Fire Service","132 S San Jacinto ST","San Jacinto","CA","132 S San Jacinto ST San Jacinto, CA 92583",33.788491,-116.95125,c(-116.95125, 33.788491)
"171","92587","33017","Canyon Lake Fire Service","28730 Vacation DR","Canyon Lake","CA","28730 Vacation DR Canyon Lake, CA 92587",33.692876,-117.25038,c(-117.25038, 33.692876)
"172","92589","33115","Temecula Fire Service","43200 Business Park DR","Temecula","CA","43200 Business Park DR Temecula, CA 92589",33.752886,-116.055617,c(-116.055617, 33.752886)
"173","92592","33067","Pechanga Fire Department","48240 Pechanga RD","Temecula","CA","48240 Pechanga RD Temecula, CA 92592",33.495343,-117.07657,c(-117.07657, 33.495343)
"174","92602","30065","Orange County Fire Authority","1 Fire Authority RD","Irvine","CA","1 Fire Authority RD Irvine, CA 92602",33.73297,-117.76932,c(-117.76932, 33.73297)
"175","92628","30020","Costa Mesa Fire Department","77 Fair DR","Costa Mesa","CA","77 Fair DR Costa Mesa, CA 92628",33.640302,-117.769442,c(-117.769442, 33.640302)
"176","92648","30040","Huntington Beach Fire Department","2000 Main ST","Huntington Beach","CA","2000 Main ST Huntington Beach, CA 92648",33.673468,-118.00243,c(-118.00243, 33.673468)
"177","92651","30045","Laguna Beach Fire Department","505 Forest AVE","Laguna Beach","CA","505 Forest AVE Laguna Beach, CA 92651",33.535325,-117.77192,c(-117.77192, 33.535325)
"178","92658","30055","Newport Beach Fire Department","100 Civic Center","Newport Beach","CA","100 Civic Center Newport Beach, CA 92658",33.640302,-117.769442,c(-117.769442, 33.640302)
"179","92674","37146","San Onofre Fire Department","5000 Mesa RD","San Clemente","CA","5000 Mesa RD San Clemente, CA 92674",33.438428,-117.623131,c(-117.623131, 33.438428)
"180","92707","30075","Santa Ana Fire Department","1439 S Broadway","Santa Ana","CA","1439 S Broadway Santa Ana, CA 92707",33.719118,-117.87143,c(-117.87143, 33.719118)
"181","92708","30025","City of Fountain Valley Fire Department","10200 Slater AVE","Fountain Valley","CA","10200 Slater AVE Fountain Valley, CA 92708",33.708618,-117.95629,c(-117.95629, 33.708618)
"182","92805","30005","Anaheim Fire & Rescue","201 S Anaheim BLVD STE 300","Anaheim","CA","201 S Anaheim BLVD STE 300 Anaheim, CA 92805",33.835665,-117.90807,c(-117.90807, 33.835665)
"183","92821","30010","Brea Fire Department","1 Civic Center CIR","Brea","CA","1 Civic Center CIR Brea, CA 92821",33.923463,-117.89559,c(-117.89559, 33.923463)
"184","92832","30030","Fullerton Fire Department","312 E Commonwealth AVE","Fullerton","CA","312 E Commonwealth AVE Fullerton, CA 92832",33.869114,-117.92985,c(-117.92985, 33.869114)
"185","92842","30035","Garden Grove Fire Department","11301 Acacia PKWY","Garden Grove","CA","11301 Acacia PKWY Garden Grove, CA 92842",33.640302,-117.769442,c(-117.769442, 33.640302)
"186","92860","33060","City of Norco Fire Department","3367 Corydon AVE","Norco","CA","3367 Corydon AVE Norco, CA 92860",33.925885,-117.55978,c(-117.55978, 33.925885)
"187","92860","33410","California Rehabilitation Center","5th ST & Western","Norco","CA","5th ST & Western Norco, CA 92860",33.925885,-117.55978,c(-117.55978, 33.925885)
"188","92866","30060","Orange Fire Department","176 S Grand ST","Orange","CA","176 S Grand ST Orange, CA 92866",33.785091,-117.84569,c(-117.84569, 33.785091)
"189","92878","36415","California Institution For Women Fire Department","16756 Chino-Corona RD","Corona","CA","16756 Chino-Corona RD Corona, CA 92878",33.752886,-116.055617,c(-116.055617, 33.752886)
"190","92880","33025","Corona Fire Department","735 Public Safety WAY","Corona","CA","735 Public Safety WAY Corona, CA 92880",33.903803,-117.60221,c(-117.60221, 33.903803)
"191","93003","56025","Ventura City Fire Department","1425 Dowell DR","Ventura","CA","1425 Dowell DR Ventura, CA 93003",34.268736,-119.2249,c(-119.2249, 34.268736)
"192","93010","56020","Ventura County Fire Protection District","165 Durley AVE","Camarillo","CA","165 Durley AVE Camarillo, CA 93010",34.231754,-119.05258,c(-119.05258, 34.231754)
"193","93013","42005","Carpinteria-Summerland Fire Protection District","911 Walnut AVE","Carpinteria","CA","911 Walnut AVE Carpinteria, CA 93013",34.402194,-119.52308,c(-119.52308, 34.402194)
"194","93015","56005","City of Fillmore Fire Department","250 Central AVE","Fillmore","CA","250 Central AVE Fillmore, CA 93015",34.396646,-118.90082,c(-118.90082, 34.396646)
"195","93030","56010","City of Oxnard Fire Department","360 W 2ND ST","Oxnard","CA","360 W 2ND ST Oxnard, CA 93030",34.21707,-119.1769,c(-119.1769, 34.21707)
"196","93042","56810","Federal Fire Ventura County","642 Eleventh ST","Point Mugu","CA","642 Eleventh ST Point Mugu, CA 93042",34.113389,-119.112432,c(-119.112432, 34.113389)
"197","93061","56015","City of Santa Paula Fire Department","200 S 10TH ST","Santa Paula","CA","200 S 10TH ST Santa Paula, CA 93061",34.032383,-119.1343,c(-119.1343, 34.032383)
"198","93101","42025","Santa Barbara City Fire Department","121 W Carrillo ST","Santa Barbara","CA","121 W Carrillo ST Santa Barbara, CA 93101",34.420163,-119.7065,c(-119.7065, 34.420163)
"199","93105","42065","San Marcos Pass Volunteer Fire Department","5593 W Camino Cielo","Santa Barbara","CA","5593 W Camino Cielo Santa Barbara, CA 93105",34.44005,-119.75496,c(-119.75496, 34.44005)
"200","93108","42030","Montecito Fire Protection District","595 San Ysidro RD","Santa Barbara","CA","595 San Ysidro RD Santa Barbara, CA 93108",34.433687,-119.63184,c(-119.63184, 34.433687)
"201","93110","42035","Santa Barbara County Fire Department","4410 Cathedral Oaks RD","Santa Barbara","CA","4410 Cathedral Oaks RD Santa Barbara, CA 93110",34.439579,-119.76788,c(-119.76788, 34.439579)
"202","93204","16002","Avenal State Prison Fire Department","1 Kings Way","Avenal","CA","1 Kings Way Avenal, CA 93204",35.930766,-120.10057,c(-120.10057, 35.930766)
"203","93210","10010","Coalinga Fire Department","300 W Elm AVE","Coalinga","CA","300 W Elm AVE Coalinga, CA 93210",36.194736,-120.30865,c(-120.30865, 36.194736)
"204","93221","54015","Exeter Fire Department","137 N F ST","Exeter","CA","137 N F ST Exeter, CA 93221",36.304696,-119.11383,c(-119.11383, 36.304696)
"205","93223","54050","Tulare County Fire Department","907 W Visalia RD","Farmersville","CA","907 W Visalia RD Farmersville, CA 93223",36.300574,-119.20552,c(-119.20552, 36.300574)
"206","93223","54005","City of Farmersville Fire Department","909 W Visalia RD","Farmersville","CA","909 W Visalia RD Farmersville, CA 93223",36.300574,-119.20552,c(-119.20552, 36.300574)
"207","93230","16010","Hanford City Fire Department","350 W Grangeville BLVD","Hanford","CA","350 W Grangeville BLVD Hanford, CA 93230",36.327063,-119.6451,c(-119.6451, 36.327063)
"208","93230","16015","Kings County Fire Department","280 N Campus DR","Hanford","CA","280 N Campus DR Hanford, CA 93230",36.327063,-119.6451,c(-119.6451, 36.327063)
"209","93242","10050","Laton CSD Volunteer Fire Department","20799 S Fowler AVE","Laton","CA","20799 S Fowler AVE Laton, CA 93242",36.43465,-119.71753,c(-119.71753, 36.43465)
"210","93245","16020","Lemoore Volunteer Fire Department","210 Fox ST","Lemoore","CA","210 Fox ST Lemoore, CA 93245",36.312075,-119.80349,c(-119.80349, 36.312075)
"211","93246","63042","COMNAV Region Soutwest Federal Fire Department","190 K ST","Lemoore NAS","CA","190 K ST Lemoore NAS, CA 93246",36.138861,-119.894727,c(-119.894727, 36.138861)
"212","93247","54025","Round Valley Fire Department","24802 Avenue 236","Lindsay","CA","24802 Avenue 236 Lindsay, CA 93247",36.201983,-119.08589,c(-119.08589, 36.201983)
"213","93247","54020","Lindsay Fire Department","185 N Gale Hill","Lindsay","CA","185 N Gale Hill Lindsay, CA 93247",36.201983,-119.08589,c(-119.08589, 36.201983)
"214","93257","54565","Sequoia National Forest - USFS","1839 S Newcomb ST","Porterville","CA","1839 S Newcomb ST Porterville, CA 93257",36.055121,-119.01595,c(-119.01595, 36.055121)
"215","93257","54035","Porterville Fire Department","40 W Cleveland AVE","Porterville","CA","40 W Cleveland AVE Porterville, CA 93257",36.055121,-119.01595,c(-119.01595, 36.055121)
"216","93271","","Sequoia & Kings Canyon National Parks","47050 Generals HWY","Three Rivers","CA","47050 Generals HWY Three Rivers, CA 93271",36.431565,-118.86296,c(-118.86296, 36.431565)
"217","93274","54040","Tulare Fire Department","800 S Blackstone ST","Tulare","CA","800 S Blackstone ST Tulare, CA 93274",36.201451,-119.34994,c(-119.34994, 36.201451)
"218","93280","15411","Wasco State Prison Fire Department (CDCR)","701 Scofield AVE","Wasco","CA","701 Scofield AVE Wasco, CA 93280",35.605045,-119.37143,c(-119.37143, 35.605045)
"219","93286","54065","Woodlake Fire Protection District","216 E Naranjo BLVD","Woodlake","CA","216 E Naranjo BLVD Woodlake, CA 93286",36.431121,-119.10642,c(-119.10642, 36.431121)
"220","93292","54045","Visalia Fire Department","420 N Burke ST","Visalia","CA","420 N Burke ST Visalia, CA 93292",36.358928,-119.24027,c(-119.24027, 36.358928)
"221","93301","15005","Bakersfield Fire Department","2101 H ST","Bakersfield","CA","2101 H ST Bakersfield, CA 93301",35.381408,-119.01935,c(-119.01935, 35.381408)
"222","93308","15010","Kern County Fire Department","5642 Victor ST","Bakersfield","CA","5642 Victor ST Bakersfield, CA 93308",35.487491,-119.00896,c(-119.00896, 35.487491)
"223","93401","40060","San Luis Obispo City Fire Department","2160 Santa Barbara AVE","San Luis Obispo","CA","2160 Santa Barbara AVE San Luis Obispo, CA 93401",35.262548,-120.65196,c(-120.65196, 35.262548)
"224","93402","40035","CAL FIRE/San Luis Obispo County Fire Station #15- South Bay","2315 Bayview Heights DR","Los Osos","CA","2315 Bayview Heights DR Los Osos, CA 93402",35.313222,-120.83468,c(-120.83468, 35.313222)
"225","93405","40080","San Luis Obispo County Fire Department","635 N Santa Rosa ST","San Luis Obispo","CA","635 N Santa Rosa ST San Luis Obispo, CA 93405",35.277189,-120.70305,c(-120.70305, 35.277189)
"226","93420","40005","Five Cities Fire Authority","140 Traffic Way","Arroyo Grande","CA","140 Traffic Way Arroyo Grande, CA 93420",35.119678,-120.55116,c(-120.55116, 35.119678)
"227","93422","40010","Atascadero Fire & Emergency Services","6005 Lewis AVE","Atascadero","CA","6005 Lewis AVE Atascadero, CA 93422",35.474913,-120.676,c(-120.676, 35.474913)
"228","93423","40490","Atascadero State Hospital Fire Department","10333 El Camino Real","Atascadero","CA","10333 El Camino Real Atascadero, CA 93423",35.428241,-120.769493,c(-120.769493, 35.428241)
"229","93424","40015","Avila Beach Fire Department","100 San Luis  ST","Avila Beach","CA","100 San Luis  ST Avila Beach, CA 93424",35.18554,-120.72583,c(-120.72583, 35.18554)
"230","93428","40020","Cambria Fire Department","2850 Burton DR","Cambria","CA","2850 Burton DR Cambria, CA 93428",35.563246,-121.07736,c(-121.07736, 35.563246)
"231","93430","40025","Cayucos Fire Protection District","201 Cayucos DR","Cayucos","CA","201 Cayucos DR Cayucos, CA 93430",35.459347,-120.88947,c(-120.88947, 35.459347)
"232","93433","40030","Grover Beach Fire Department","701 Rockaway AVE","Grover Beach","CA","701 Rockaway AVE Grover Beach, CA 93433",35.120934,-120.61952,c(-120.61952, 35.120934)
"233","93434","42010","City of Guadalupe Fire Department","918 Obispo ST","Guadalupe","CA","918 Obispo ST Guadalupe, CA 93434",34.958896,-120.58014,c(-120.58014, 34.958896)
"234","93436","42015","Lompoc Fire Department","115 S G ST","Lompoc","CA","115 S G ST Lompoc, CA 93436",34.639682,-120.4471,c(-120.4471, 34.639682)
"235","93437","42830","Vandenberg Fire Department","BLDG 10660 1170 Iceland AVE","Vandenberg AFB","CA","BLDG 10660 1170 Iceland AVE Vandenberg AFB, CA 93437",34.73489,-120.53467,c(-120.53467, 34.73489)
"236","93442","40040","Morro Bay Fire Department","715 Harbor ST","Morro Bay","CA","715 Harbor ST Morro Bay, CA 93442",35.373047,-120.83844,c(-120.83844, 35.373047)
"237","93445","40045","Oceano Fire Department","1655 Front ST","Oceano","CA","1655 Front ST Oceano, CA 93445",35.097599,-120.61327,c(-120.61327, 35.097599)
"238","93446","40050","Paso Robles Department of Emergency Services","900 Park ST","Paso Robles","CA","900 Park ST Paso Robles, CA 93446",35.640589,-120.70418,c(-120.70418, 35.640589)
"239","93449","40055","City of Pismo Beach Fire Department","760 Mattie RD","Pismo Beach","CA","760 Mattie RD Pismo Beach, CA 93449",35.150886,-120.65401,c(-120.65401, 35.150886)
"240","93451","40065","San Miguel Community Services District Fire Department","1150 Mission ST","San Miguel","CA","1150 Mission ST San Miguel, CA 93451",35.818054,-120.63645,c(-120.63645, 35.818054)
"241","93451","40790","Camp Roberts Fire Department","4050 SW Arizona BLVD","San Miguel","CA","4050 SW Arizona BLVD San Miguel, CA 93451",35.818054,-120.63645,c(-120.63645, 35.818054)
"242","93452","40033","Hearst Castle Fire Department","750 Hearst Castle RD","San Simeon","CA","750 Hearst Castle RD San Simeon, CA 93452",35.664386,-121.21965,c(-121.21965, 35.664386)
"243","93453","40070","Santa Margarita Fire Department","22375 G ST","Santa Margarita","CA","22375 G ST Santa Margarita, CA 93453",35.323098,-120.08301,c(-120.08301, 35.323098)
"244","93457","42020","Orcutt Fire Protection District","335 UNION AVE","Orcutt","CA","335 UNION AVE Orcutt, CA 93457",34.836252,-120.53421,c(-120.53421, 34.836252)
"245","93458","42040","Santa Maria City Fire Department","314 W Cook ST RM 8","Santa Maria","CA","314 W Cook ST RM 8 Santa Maria, CA 93458",34.956344,-120.45243,c(-120.45243, 34.956344)
"246","93463","42045","Solvang Fire Department","1644 Oak ST","Solvang","CA","1644 Oak ST Solvang, CA 93463",34.608938,-120.13838,c(-120.13838, 34.608938)
"247","93465","40075","Templeton Fire Department","206 5TH ST","Templeton","CA","206 5TH ST Templeton, CA 93465",35.54464,-120.72428,c(-120.72428, 35.54464)
"248","93501","15023","Mojave Air and Space Port Fire Department","1434 Flightline","Mojave","CA","1434 Flightline Mojave, CA 93501",35.04535,-118.16141,c(-118.16141, 35.04535)
"249","93505","15065","California City Fire Department","20890 Hacienda BLVD","California City","CA","20890 Hacienda BLVD California City, CA 93505",35.139327,-117.91473,c(-117.91473, 35.139327)
"250","93512","26005","White Mountain Fire Protection District","24931 N HWY 6","Benton","CA","24931 N HWY 6 Benton, CA 93512",37.583838,-118.23615,c(-118.23615, 37.583838)
"251","93513","14005","Big Pine Fire Department","181 N Main ST","Big Pine","CA","181 N Main ST Big Pine, CA 93513",37.1363,-118.27335,c(-118.27335, 37.1363)
"252","93514","26045","Wheeler Crest Fire Department","129 Willow RD","Swall Meadows","CA","129 Willow RD Swall Meadows, CA 93514",37.282192,-118.38717,c(-118.38717, 37.282192)
"253","93514","14015","Bishop Fire Department","209 W Line ST","Bishop","CA","209 W Line ST Bishop, CA 93514",37.282192,-118.38717,c(-118.38717, 37.282192)
"254","93514","26555","Inyo National Forest, & Bishop Field Office, BLM","873 N Main ST","Bishop","CA","873 N Main ST Bishop, CA 93514",37.282192,-118.38717,c(-118.38717, 37.282192)
"255","93514","26012","Chalfant Valley Fire Department","215 Valley RD","Chalfant Valley","CA","215 Valley RD Chalfant Valley, CA 93514",37.282192,-118.38717,c(-118.38717, 37.282192)
"256","93514","26042","Paradise Fire Protection District","5300 Old Sherwin Grade","Bishop","CA","5300 Old Sherwin Grade Bishop, CA 93514",37.282192,-118.38717,c(-118.38717, 37.282192)
"257","93517","26010","Bridgeport Fire Protection District","309 Main ST","Bridgeport","CA","309 Main ST Bridgeport, CA 93517",38.21053,-119.31968,c(-119.31968, 38.21053)
"258","93517","M2205","Marine Corps Mountain Warfare Fire Department","MCMWTC Fire Emergency Services","Bridgeport","CA","MCMWTC Fire Emergency Services Bridgeport, CA 93517",38.21053,-119.31968,c(-119.31968, 38.21053)
"259","93524","15830","Edwards Air Force Base Fire & Emergency Services","225 Rosamond BLVD","Edwards AFB","CA","225 Rosamond BLVD Edwards AFB, CA 93524",35.294405,-118.905173,c(-118.905173, 35.294405)
"260","93526","14025","Independence Fire Protection District","200 S Jackson ST","Independence","CA","200 S Jackson ST Independence, CA 93526",36.851729,-118.20743,c(-118.20743, 36.851729)
"261","93529","26020","June Lake Fire Protection District","2380 HWY 158","June Lake","CA","2380 HWY 158 June Lake, CA 93529",37.765218,-119.07769,c(-119.07769, 37.765218)
"262","93530","14030","Keeler Volunteer Fire Department","175 Old State HWY","Keeler","CA","175 Old State HWY Keeler, CA 93530",36.495772,-117.88289,c(-117.88289, 36.495772)
"263","93536","19495","California State Prison-Los Angeles County -Fire Department","44750 60TH ST W","Lancaster","CA","44750 60TH ST W Lancaster, CA 93536",34.728857,-118.32683,c(-118.32683, 34.728857)
"264","93541","26025","Lee Vining Volunteer Fire Department","55 Mattly AVE","Lee Vining","CA","55 Mattly AVE Lee Vining, CA 93541",37.973204,-119.12029,c(-119.12029, 37.973204)
"265","93545","14035","Lone Pine Fire Department","130 Jackson ST","Lone Pine","CA","130 Jackson ST Lone Pine, CA 93545",36.589514,-118.07367,c(-118.07367, 36.589514)
"266","93546","26030","Mammoth Lakes Fire Protection District","P.O. Box 5","Mammoth Lakes","CA","P.O. Box 5 Mammoth Lakes, CA 93546",37.621587,-118.86279,c(-118.86279, 37.621587)
"267","93546","26035","Long Valley Fire Protection District","3605 Crowley Lake DR","Crowley Lake","CA","3605 Crowley Lake DR Crowley Lake, CA 93546",37.621587,-118.86279,c(-118.86279, 37.621587)
"268","93551","","Air Force Plant 42 Fire Department","2501 E Avenue P","Palmdale","CA","2501 E Avenue P Palmdale, CA 93551",34.606146,-118.18495,c(-118.18495, 34.606146)
"269","93555","","Ridgecrest Volunteer Fire Department","139 E Las Flores AVE","Ridgecrest","CA","139 E Las Flores AVE Ridgecrest, CA 93555",35.599177,-117.68065,c(-117.68065, 35.599177)
"270","93561","15410","California Correctional Institute","Hwy 202","Tehachapi","CA","Hwy 202 Tehachapi, CA 93561",35.132673,-118.50781,c(-118.50781, 35.132673)
"271","93561","15040","Tehachapi City Fire Department","108 Pinon ST","Tehachapi","CA","108 Pinon ST Tehachapi, CA 93561",35.132673,-118.50781,c(-118.50781, 35.132673)
"272","93562","36020","Searles Valley Minerals Fire Department","13200 Main ST","Trona","CA","13200 Main ST Trona, CA 93562",35.764433,-117.38202,c(-117.38202, 35.764433)
"273","93581","15070","Sand Canyon Volunteer Fire Department","PO Box 463","Tehachapi","CA","PO Box 463 Tehachapi, CA 93581",35.294405,-118.905173,c(-118.905173, 35.294405)
"274","93602","10055","Bald Mountain Volunteer Fire Protection District","41967 Auberry RD","Auberry","CA","41967 Auberry RD Auberry, CA 93602",37.077273,-119.42982,c(-119.42982, 37.077273)
"275","93602","10135","Auberry Volunteer Fire Department","33051 Powerhouse RD","Auberry","CA","33051 Powerhouse RD Auberry, CA 93602",37.077273,-119.42982,c(-119.42982, 37.077273)
"276","93605","10110","Big Creek Volunteer Fire Department","551121 Point RD","Big Creek","CA","551121 Point RD Big Creek, CA 93605",37.191503,-119.26372,c(-119.26372, 37.191503)
"277","93610","20005","Chowchilla Fire Department","240 N 1ST ST","Chowchilla","CA","240 N 1ST ST Chowchilla, CA 93610",37.100417,-120.27864,c(-120.27864, 37.100417)
"278","93610","20415","Central California Women's Facility Valley State Prison for Women Fire Department","23370 Road 22","Chowchilla","CA","23370 Road 22 Chowchilla, CA 93610",37.100417,-120.27864,c(-120.27864, 37.100417)
"279","93611","10566","Sierra National Forest","1600 Tollhouse RD","Clovis","CA","1600 Tollhouse RD Clovis, CA 93611",36.840057,-119.66107,c(-119.66107, 36.840057)
"280","93612","10005","Clovis Fire Department","1233 5TH ST","Clovis","CA","1233 5TH ST Clovis, CA 93612",36.813456,-119.70826,c(-119.70826, 36.813456)
"281","93618","54010","City of Dinuba Fire Department","420 E Tulare ST","Dinuba","CA","420 E Tulare ST Dinuba, CA 93618",36.538017,-119.38887,c(-119.38887, 36.538017)
"282","93620","24010","Dos Palos Fire Department","1540 Golden Gate AVE","Dos Palos","CA","1540 Golden Gate AVE Dos Palos, CA 93620",37.029613,-120.64014,c(-120.64014, 37.029613)
"283","93621","10145","Mountain Valley Volunteer Fire Department","46694 Chuckwagon RD","Dunlap","CA","46694 Chuckwagon RD Dunlap, CA 93621",36.774951,-119.13779,c(-119.13779, 36.774951)
"284","93622","10020","Firebaugh Fire Department","1575 Eleventh ST","Firebaugh","CA","1575 Eleventh ST Firebaugh, CA 93622",36.800027,-120.57996,c(-120.57996, 36.800027)
"285","93625","10025","Fowler Fire Department","128 S 5th ST","Fowler","CA","128 S 5th ST Fowler, CA 93625",36.6265,-119.67526,c(-119.67526, 36.6265)
"286","93628","10155","Hume Lake Fire & Rescue Department","64144 Hume Lake RD","Hume","CA","64144 Hume Lake RD Hume, CA 93628",36.780156,-118.91524,c(-118.91524, 36.780156)
"287","93630","10040","North Central Fire Protection District","15850 W Kearney BLVD","Kerman","CA","15850 W Kearney BLVD Kerman, CA 93630",36.722616,-120.10081,c(-120.10081, 36.722616)
"288","93631","10045","Kingsburg Fire Department","1460 Marion ST","Kingsburg","CA","1460 Marion ST Kingsburg, CA 93631",36.506063,-119.54587,c(-119.54587, 36.506063)
"289","93634","10038","Huntington Lake Volunteer Fire Department","63000 Huntington Vista LN","Lakeshore","CA","63000 Huntington Vista LN Lakeshore, CA 93634",37.237216,-119.23304,c(-119.23304, 37.237216)
"290","93635","24025","Los Banos Fire Department","333 7TH ST","Los Banos","CA","333 7TH ST Los Banos, CA 93635",37.048385,-120.86983,c(-120.86983, 37.048385)
"291","93637","20015","Madera County Fire Department","200 W 4TH ST, STE 1400","Madera","CA","200 W 4TH ST, STE 1400 Madera, CA 93637",36.914819,-120.15817,c(-120.15817, 36.914819)
"292","93638","20010","Madera City Fire Department","14225 Road 28","Madera","CA","14225 Road 28 Madera, CA 93638",36.991476,-119.98729,c(-119.98729, 36.991476)
"293","93646","10065","Orange Cove Fire Protection District","550 Center ST","Orange Cove","CA","550 Center ST Orange Cove, CA 93646",36.623699,-119.30892,c(-119.30892, 36.623699)
"294","93654","10080","Reedley Fire Department","1060 D ST","Reedley","CA","1060 D ST Reedley, CA 93654",36.608675,-119.43761,c(-119.43761, 36.608675)
"295","93656","10085","Riverdale Volunteer Fire Department","20868 Malsbary","Riverdale","CA","20868 Malsbary Riverdale, CA 93656",36.45185,-119.93651,c(-119.93651, 36.45185)
"296","93657","10090","Sanger Fire Department","1700 Seventh ST","Sanger","CA","1700 Seventh ST Sanger, CA 93657",36.72845,-119.53571,c(-119.53571, 36.72845)
"297","93657","10035","Fig Garden Fire Protection District","210 S Academy AVE","Sanger","CA","210 S Academy AVE Sanger, CA 93657",36.72845,-119.53571,c(-119.53571, 36.72845)
"298","93657","10032","Fresno County Fire Protection District","210 S Academy AVE","Sanger","CA","210 S Academy AVE Sanger, CA 93657",36.72845,-119.53571,c(-119.53571, 36.72845)
"299","93662","10095","Selma Fire Department","1711 Tucker ST","Selma","CA","1711 Tucker ST Selma, CA 93662",36.566779,-119.62201,c(-119.62201, 36.566779)
"300","93664","10120","Shaver Lake Volunteer Fire Department","41690 Tollhouse","Shaver lake","CA","41690 Tollhouse Shaver lake, CA 93664",37.103957,-119.2644,c(-119.2644, 37.103957)
"301","93664","10160","Pine Ridge Volunteer Fire Department","38018 Glenwood LN","Shaver Lake","CA","38018 Glenwood LN Shaver Lake, CA 93664",37.103957,-119.2644,c(-119.2644, 37.103957)
"302","93668","10140","City of San Joaquin/ Fresno County Fire District","25101 W Morton RD","Tranquillity","CA","25101 W Morton RD Tranquillity, CA 93668",36.641742,-120.28909,c(-120.28909, 36.641742)
"303","93721","10030","City of Fresno Fire Department","450 M ST","Fresno","CA","450 M ST Fresno, CA 93721",36.733193,-119.78473,c(-119.78473, 36.733193)
"304","93727","F3021","Fresno Air National Guard Fire Department","5323 E McKinley AVE","Fresno","CA","5323 E McKinley AVE Fresno, CA 93727",36.753177,-119.69703,c(-119.69703, 36.753177)
"305","93727","10031","Fresno Yosemite Intl Airport Public Safety","4995 E Clinton WAY","Fresno","CA","4995 E Clinton WAY Fresno, CA 93727",36.753177,-119.69703,c(-119.69703, 36.753177)
"306","93901","27070","Salinas Fire Department","65 W Alisal ST STE 210","Salinas","CA","65 W Alisal ST STE 210 Salinas, CA 93901",36.665879,-121.65497,c(-121.65497, 36.665879)
"307","93908","27075","Monterey County Regional FIre District","19900 Portola DR","Salinas","CA","19900 Portola DR Salinas, CA 93908",36.619954,-121.65145,c(-121.65145, 36.619954)
"308","93920","27900","Big Sur Volunteer Fire Brigade","HWY 1","Big Sur","CA","HWY 1 Big Sur, CA 93920",36.133401,-121.63798,c(-121.63798, 36.133401)
"309","93921","27015","Carmel-by-the-Sea Fire Department","S Sixth AVE","Carmel","CA","S Sixth AVE Carmel, CA 93921",36.555248,-121.9212,c(-121.9212, 36.555248)
"310","93923","27910","Mid-Coast Fire Brigade","38000 Palo Colorado RD","Carmel","CA","38000 Palo Colorado RD Carmel, CA 93923",36.517261,-121.89436,c(-121.89436, 36.517261)
"311","93923","27020","Carmel Valley Fire Protection District","8455 Carmel Valley  RD","Carmel","CA","8455 Carmel Valley  RD Carmel, CA 93923",36.517261,-121.89436,c(-121.89436, 36.517261)
"312","93924","27905","Cachagua Fire Protection District","37200 Nason RD","Carmel Valley","CA","37200 Nason RD Carmel Valley, CA 93924",36.447533,-121.68611,c(-121.68611, 36.447533)
"313","93926","27035","Gonzales Volunteer Fire Department","325 Center ST","Gonzales","CA","325 Center ST Gonzales, CA 93926",36.518179,-121.42557,c(-121.42557, 36.518179)
"314","93927","27045","Greenfield Fire Department","380 Oak AVE","Greenfield","CA","380 Oak AVE Greenfield, CA 93927",36.300819,-121.2904,c(-121.2904, 36.300819)
"315","93928","27800","Fort Hunter Liggett Fire Department","120 Infantry RD","Fort Hunter Liggett","CA","120 Infantry RD Fort Hunter Liggett, CA 93928",36.015388,-121.24839,c(-121.24839, 36.015388)
"316","93930","27050","King City Fire Department","422 Bassett ST","King City","CA","422 Bassett ST King City, CA 93930",36.21106,-121.05986,c(-121.05986, 36.21106)
"317","93933","27055","Marina Fire Department","211 Hillcrest AVE","Marina","CA","211 Hillcrest AVE Marina, CA 93933",36.678155,-121.79724,c(-121.79724, 36.678155)
"318","93940","27150","Monterey Airport Fire Department","200 Fred Kane DR","Monterey","CA","200 Fred Kane DR Monterey, CA 93940",36.586193,-121.88667,c(-121.88667, 36.586193)
"319","93940","27010","Carmel Highlands Fire Protection District","2221 Garden RD","Monterey","CA","2221 Garden RD Monterey, CA 93940",36.586193,-121.88667,c(-121.88667, 36.586193)
"320","93940","27005","Aromas Tri-County Fire Protection District","2221 Garden RD","Monterey","CA","2221 Garden RD Monterey, CA 93940",36.586193,-121.88667,c(-121.88667, 36.586193)
"321","93940","27024","Cypress Fire Protection District","2221 Garden RD","Monterey","CA","2221 Garden RD Monterey, CA 93940",36.586193,-121.88667,c(-121.88667, 36.586193)
"322","93940","27090","City of Soledad Fire Department","2221 Garden RD","Monterey","CA","2221 Garden RD Monterey, CA 93940",36.586193,-121.88667,c(-121.88667, 36.586193)
"323","93940","27060","Monterey Fire Department","610 Pacific ST","Monterey","CA","610 Pacific ST Monterey, CA 93940",36.586193,-121.88667,c(-121.88667, 36.586193)
"324","93940","27155","South Monterey County Fire Protection District","2221 Garden RD","Monterey","CA","2221 Garden RD Monterey, CA 93940",36.586193,-121.88667,c(-121.88667, 36.586193)
"325","93940","27555","California Forestry","2221 Garden RD","Monterey","CA","2221 Garden RD Monterey, CA 93940",36.586193,-121.88667,c(-121.88667, 36.586193)
"326","93940","27115","Pebble Beach Fire Department","2221 Garden RD","Monterey","CA","2221 Garden RD Monterey, CA 93940",36.586193,-121.88667,c(-121.88667, 36.586193)
"327","93940","35020","San Benito County Fire Department","2221 Garden RD","Monterey","CA","2221 Garden RD Monterey, CA 93940",36.586193,-121.88667,c(-121.88667, 36.586193)
"328","93943","27815","Naval Postgraduate School Fire Department","1399 Cunningham RD","Monterey","CA","1399 Cunningham RD Monterey, CA 93943",36.35433,-121.132928,c(-121.132928, 36.35433)
"329","93950","27065","Pacific Grove Fire Department","600 Pine AVE","Pacific Grove","CA","600 Pine AVE Pacific Grove, CA 93950",36.619065,-121.92102,c(-121.92102, 36.619065)
"330","93955","","Presidio of Monterey Fire Department","4400 General Jim Moore BLVD","Seaside","CA","4400 General Jim Moore BLVD Seaside, CA 93955",36.615813,-121.83461,c(-121.83461, 36.615813)
"331","93955","27080","City of Seaside Fire Department","1635 Broadway AVE","Seaside","CA","1635 Broadway AVE Seaside, CA 93955",36.615813,-121.83461,c(-121.83461, 36.615813)
"332","93960","27410","Correctional Training Facility Fire Department","Hwy 101 5 Miles North of Soledad","Soledad","CA","Hwy 101 5 Miles North of Soledad Soledad, CA 93960",36.41176,-121.32617,c(-121.32617, 36.41176)
"333","94010","41556","Central County Fire Department","1399 Rollins RD","Burlingame","CA","1399 Rollins RD Burlingame, CA 94010",37.574936,-122.36332,c(-122.36332, 37.574936)
"334","94014","41030","Colma Fire Protection District","50 Reiner ST","Colma","CA","50 Reiner ST Colma, CA 94014",37.699182,-122.45035,c(-122.45035, 37.699182)
"335","94019","41045","Half Moon Bay Fire Protection District","1191 Main ST","Half Moon Bay","CA","1191 Main ST Half Moon Bay, CA 94019",37.47584,-122.44323,c(-122.44323, 37.47584)
"336","94019","41060","Point Mantara Fire Protection District","1191 Main ST","Half Moon Bay","CA","1191 Main ST Half Moon Bay, CA 94019",37.47584,-122.44323,c(-122.44323, 37.47584)
"337","94020","52029","La Honda Fire Brigade","484 La Honda RD","La Honda","CA","484 La Honda RD La Honda, CA 94020",37.28842,-122.22457,c(-122.22457, 37.28842)
"338","94025","41050","Menlo Park Fire Protection District","170 Middlefield RD","Menlo Park","CA","170 Middlefield RD Menlo Park, CA 94025",37.451688,-122.18385,c(-122.18385, 37.451688)
"339","94035","43810","NASA/Ames Fire Department","580 Zook RD","Moffett Field","CA","580 Zook RD Moffett Field, CA 94035",37.189396,-121.705327,c(-121.705327, 37.189396)
"340","94041","43050","Mountain View Fire Department","1000 Villa ST","Mountain View","CA","1000 Villa ST Mountain View, CA 94041",37.38949,-122.07846,c(-122.07846, 37.38949)
"341","94062","41110","King Mountain Volunteer Fire Department","13889 Skyline BLVD","Woodside","CA","13889 Skyline BLVD Woodside, CA 94062",37.444879,-122.26253,c(-122.26253, 37.444879)
"342","94062","41105","Woodside Fire Protection District","3111 Woodside RD","Woodside","CA","3111 Woodside RD Woodside, CA 94062",37.444879,-122.26253,c(-122.26253, 37.444879)
"343","94063","41070","Redwood City Fire Department","755 Marshall ST","Redwood City","CA","755 Marshall ST Redwood City, CA 94063",37.483504,-122.2144,c(-122.2144, 37.483504)
"344","94066","41080","San Bruno Fire Department","555 El Camino Real","San Bruno","CA","555 El Camino Real San Bruno, CA 94066",37.625908,-122.42363,c(-122.42363, 37.625908)
"345","94080","41095","South San Francisco Fire Department","480 N Canal ST","South San Francisco","CA","480 N Canal ST South San Francisco, CA 94080",37.652857,-122.4301,c(-122.4301, 37.652857)
"346","94088","43105","City of Sunnyvale Department of Public Safety - Fire Division","700 All America WAY","Sunnyvale","CA","700 All America WAY Sunnyvale, CA 94088",37.189396,-121.705327,c(-121.705327, 37.189396)
"347","94089","43815","Onizuka Fire and Emergency Services","1080 Innovation WAY","Sunnyvale","CA","1080 Innovation WAY Sunnyvale, CA 94089",37.406289,-122.00838,c(-122.00838, 37.406289)
"348","94107","38005","San Francisco Fire Department","698 2ND ST","San Francisco","CA","698 2ND ST San Francisco, CA 94107",37.766529,-122.39577,c(-122.39577, 37.766529)
"349","94123","38805","Presidio Fire Department","201 Fort Mason","San Francisco","CA","201 Fort Mason San Francisco, CA 94123",37.801028,-122.43836,c(-122.43836, 37.801028)
"350","94301","43060","City of Palo Alto Fire Department","250 Hamilton AVE","Palo Alto","CA","250 Hamilton AVE Palo Alto, CA 94301",37.443688,-122.15071,c(-122.15071, 37.443688)
"351","94402","41115","San Mateo County Fire Department","20 Tower RD","San Mateo","CA","20 Tower RD San Mateo, CA 94402",37.551586,-122.32773,c(-122.32773, 37.551586)
"352","94402","41090","San Mateo Fire Department","1900 O'Farrell ST, STE 140","San Mateo","CA","1900 O'Farrell ST, STE 140 San Mateo, CA 94402",37.551586,-122.32773,c(-122.32773, 37.551586)
"353","94404","41040","Foster City Fire Department","1040 E Hillsdale BLVD","Foster City","CA","1040 E Hillsdale BLVD Foster City, CA 94404",37.554335,-122.27032,c(-122.27032, 37.554335)
"354","94501","01005","City of Alameda Fire Department","1300 Park ST","Alameda","CA","1300 Park ST Alameda, CA 94501",37.769528,-122.25937,c(-122.25937, 37.769528)
"355","94503","28020","American Canyon Fire Protection District","911 Donaldson Way E","American Canyon","CA","911 Donaldson Way E American Canyon, CA 94503",38.170372,-122.25605,c(-122.25605, 38.170372)
"356","94510","48005","Benicia Fire Department","150 Military West","Benicia","CA","150 Military West Benicia, CA 94510",38.071769,-122.15517,c(-122.15517, 38.071769)
"357","94510","48095","Valero Refinery Fire Department","3400 E Second ST","Benicia","CA","3400 E Second ST Benicia, CA 94510",38.071769,-122.15517,c(-122.15517, 38.071769)
"358","94513","07015","East Contra Costa Fire Protection District","134 Oak ST","Brentwood","CA","134 Oak ST Brentwood, CA 94513",37.932123,-121.70381,c(-121.70381, 37.932123)
"359","94515","28005","Calistoga Fire Department","1113 Washington ST","Calistoga","CA","1113 Washington ST Calistoga, CA 94515",38.597907,-122.60952,c(-122.60952, 38.597907)
"360","94520","07805","Concord Federal Fire Department","10 Delta ST","Concord","CA","10 Delta ST Concord, CA 94520",37.986321,-122.03988,c(-122.03988, 37.986321)
"361","94523","07090","Contra Costa County Fire Protection District","2010 Geary RD","Pleasant Hill","CA","2010 Geary RD Pleasant Hill, CA 94523",37.951672,-122.07317,c(-122.07317, 37.951672)
"362","94525","07115","C & H Sugar Company Fire Department","830 Loring AVE","Crockett","CA","830 Loring AVE Crockett, CA 94525",38.05282,-122.2234,c(-122.2234, 38.05282)
"363","94525","07030","Crockett-Carquinez Fire Department","746 Loring AVE","Crockett","CA","746 Loring AVE Crockett, CA 94525",38.05282,-122.2234,c(-122.2234, 38.05282)
"364","94530","07040","El Cerrito Fire Department","10900 San Pablo AVE","El Cerrito","CA","10900 San Pablo AVE El Cerrito, CA 94530",37.917774,-122.30426,c(-122.30426, 37.917774)
"365","94533","48030","Suisun Fire Protection District","445 Jackson ST","Fairfield","CA","445 Jackson ST Fairfield, CA 94533",38.269582,-122.03701,c(-122.03701, 38.269582)
"366","94533","48025","Fairfield Fire Department","1633 Union  AVE","Fairfield","CA","1633 Union  AVE Fairfield, CA 94533",38.269582,-122.03701,c(-122.03701, 38.269582)
"367","94534","48055","Cordelia Fire Protection District","2155 Cordelia RD","Fairfield","CA","2155 Cordelia RD Fairfield, CA 94534",38.245844,-122.101917,c(-122.101917, 38.245844)
"368","94535","F4580","Travis AFB Fire Department","191 W ST","Travis AFB","CA","191 W ST Travis AFB, CA 94535",38.277661,-121.9192,c(-121.9192, 38.277661)
"369","94538","01040","Fremont Fire Department","3300 Capitol AVE BLDG A","Fremont","CA","3300 Capitol AVE BLDG A Fremont, CA 94538",37.527237,-121.9679,c(-121.9679, 37.527237)
"370","94541","01045","Hayward Fire Department","777 B ST","Hayward","CA","777 B ST Hayward, CA 94541",37.674431,-122.08883,c(-122.08883, 37.674431)
"371","94546","01080","East Bay Regional Park District Fire Department","17930 Lake Chabot RD","Castro Valley","CA","17930 Lake Chabot RD Castro Valley, CA 94546",37.702063,-122.07934,c(-122.07934, 37.702063)
"372","94547","07100","Rodeo Hercules Fire Protection District","1680 Refugio Valley RD","Hercules","CA","1680 Refugio Valley RD Hercules, CA 94547",38.005122,-122.25784,c(-122.25784, 38.005122)
"373","94550","01140","San Antone Valley Volunteer Fire Department","47405 Mines RD","Livermore","CA","47405 Mines RD Livermore, CA 94550",37.65778,-121.73011,c(-121.73011, 37.65778)
"374","94550","01065","Lawrence Livermore Fire Department","7000 E L-388 AVE","Livermore","CA","7000 E L-388 AVE Livermore, CA 94550",37.65778,-121.73011,c(-121.73011, 37.65778)
"375","94553","07120","Martinez Refining Company Fire Brigade","3485 Pacheco BLVD","Martinez","CA","3485 Pacheco BLVD Martinez, CA 94553",37.998912,-122.11501,c(-122.11501, 37.998912)
"376","94553","07135","Ultramar Fire Department","150 Solano WAY","Pacheco","CA","150 Solano WAY Pacheco, CA 94553",37.998912,-122.11501,c(-122.11501, 37.998912)
"377","94559","28010","City of Napa Fire Department","1539 1ST ST","Napa","CA","1539 1ST ST Napa, CA 94559",38.291164,-122.28671,c(-122.28671, 38.291164)
"378","94560","45945","Old Station Volunteer Fire Department","PO Box 44","Newark","CA","PO Box 44 Newark, CA 94560",37.535586,-122.03362,c(-122.03362, 37.535586)
"379","94560","01070","Newark Fire Department","37101 Newark BLVD","Newark","CA","37101 Newark BLVD Newark, CA 94560",37.535586,-122.03362,c(-122.03362, 37.535586)
"380","94563","07060","Moraga-Orinda Fire Protection District","33 Orinda WAY","Orinda","CA","33 Orinda WAY Orinda, CA 94563",37.878625,-122.18296,c(-122.18296, 37.878625)
"381","94564","07075","Pinole Fire Department","880 Tennent AVE","Pinole","CA","880 Tennent AVE Pinole, CA 94564",37.997509,-122.29208,c(-122.29208, 37.997509)
"382","94568","01008","Alameda County Fire Department","6363 Clark AVE","Dublin","CA","6363 Clark AVE Dublin, CA 94568",37.714179,-121.92567,c(-121.92567, 37.714179)
"383","94568","A2001","Camp Parks Fire and Emergency Services","520 Mitchell DR","Dublin","CA","520 Mitchell DR Dublin, CA 94568",37.714179,-121.92567,c(-121.92567, 37.714179)
"384","94571","34130","Delta Fire Protection District","350 Main ST","Rio Vista","CA","350 Main ST Rio Vista, CA 94571",38.156909,-121.72075,c(-121.72075, 38.156909)
"385","94571","48040","Rio Vista Fire Department","350 Main ST","Rio Vista","CA","350 Main ST Rio Vista, CA 94571",38.156909,-121.72075,c(-121.72075, 38.156909)
"386","94571","48090","Montezuma Fire Protection District","21 N 4TH ST","Rio Vista","CA","21 N 4TH ST Rio Vista, CA 94571",38.156909,-121.72075,c(-121.72075, 38.156909)
"387","94574","28015","St. Helena Fire Department","1480 Main ST","Saint Helena","CA","1480 Main ST Saint Helena, CA 94574",38.511241,-122.45695,c(-122.45695, 38.511241)
"388","94574","28025","Napa County Fire Department","1199 Big Tree RD","Saint Helena","CA","1199 Big Tree RD Saint Helena, CA 94574",38.511241,-122.45695,c(-122.45695, 38.511241)
"389","94583","07035","San Ramon Valley Fire Protection District","1500 Bollinger Canyon RD","San Ramon","CA","1500 Bollinger Canyon RD San Ramon, CA 94583",37.75735,-121.95213,c(-121.95213, 37.75735)
"390","94585","48050","City of Suisun City Fire Department","621 Pintail DR","Suisun City","CA","621 Pintail DR Suisun City, CA 94585",38.231364,-122.05414,c(-122.05414, 38.231364)
"391","94587","01115","Union City Fire Department","34009 Alvarado-Niles RD","Union City","CA","34009 Alvarado-Niles RD Union City, CA 94587",37.592184,-122.04577,c(-122.04577, 37.592184)
"392","94592","48070","Vallejo Fire Department","970 Nimitz AVE","Vallejo","CA","970 Nimitz AVE Vallejo, CA 94592",38.115015,-122.29055,c(-122.29055, 38.115015)
"393","94608","01035","Emeryville Fire Department","2333 Powell ST","Emeryville","CA","2333 Powell ST Emeryville, CA 94608",37.834724,-122.28316,c(-122.28316, 37.834724)
"394","94611","01090","Piedmont Fire Department","120 Vista AVE","Piedmont","CA","120 Vista AVE Piedmont, CA 94611",37.827126,-122.22289,c(-122.22289, 37.827126)
"395","94612","01075","Oakland Fire Department","150 Frank H Ogawa PLZ","Oakland","CA","150 Frank H Ogawa PLZ Oakland, CA 94612",37.809427,-122.27172,c(-122.27172, 37.809427)
"396","94701","01795","Bayer Fire Department","800 Dwight Way","Berkeley","CA","800 Dwight Way Berkeley, CA 94701",37.860576,-122.29673,c(-122.29673, 37.860576)
"397","94704","01015","Berkeley Fire Department","2100 Martin Luther King Way","Berkeley","CA","2100 Martin Luther King Way Berkeley, CA 94704",37.868575,-122.25855,c(-122.25855, 37.868575)
"398","94706","01010","Albany Fire Department","1000 San Pablo AVE","Albany","CA","1000 San Pablo AVE Albany, CA 94706",37.889125,-122.29371,c(-122.29371, 37.889125)
"399","94802","19908","Chevron Fire Department","841 Chevron WAY","Richmond","CA","841 Chevron WAY Richmond, CA 94802",37.777208,-121.955399,c(-121.955399, 37.777208)
"400","94804","07095","Richmond Fire Department","440 Civic Center Plaza","Richmond","CA","440 Civic Center Plaza Richmond, CA 94804",37.926509,-122.3408,c(-122.3408, 37.926509)
"401","94901","21075","San Rafael Fire Department","1039 C ST","San Rafael","CA","1039 C ST San Rafael, CA 94901",37.972423,-122.51484,c(-122.51484, 37.972423)
"402","94903","21080","Marinwood Fire Department","777 Miller Creek RD","San Rafael","CA","777 Miller Creek RD San Rafael, CA 94903",38.019022,-122.54589,c(-122.54589, 38.019022)
"403","94904","21030","Kentfield Fire Protection District","1004 Sir Francis Drake BLVD","Kentfield","CA","1004 Sir Francis Drake BLVD Kentfield, CA 94904",37.950069,-122.54284,c(-122.54284, 37.950069)
"404","94920","21100","Tiburon Fire Protection District","1679 Tiburon BLVD","Tiburon","CA","1679 Tiburon BLVD Tiburon, CA 94920",37.892476,-122.47541,c(-122.47541, 37.892476)
"405","94922","49005","Bodega Volunteer Fire Department","17184 Bodega HWY","Bodega","CA","17184 Bodega HWY Bodega, CA 94922",38.345572,-122.96676,c(-122.96676, 38.345572)
"406","94923","49010","Bodega Bay Fire Protection District","510 Highway 1","Bodega Bay","CA","510 Highway 1 Bodega Bay, CA 94923",38.347701,-123.05869,c(-123.05869, 38.347701)
"407","94924","21010","Bolinas Fire Protection District","100 Mesa RD","Bolinas","CA","100 Mesa RD Bolinas, CA 94924",37.907675,-122.70201,c(-122.70201, 37.907675)
"408","94925","21015","Corte Madera Fire Department","342 Tamalpais DR","Corte Madera","CA","342 Tamalpais DR Corte Madera, CA 94925",37.924242,-122.516,c(-122.516, 37.924242)
"409","94928","49140","Rohnert Park Department of Public Safety","500 City Center DR","Rohnert Park","CA","500 City Center DR Rohnert Park, CA 94928",38.347174,-122.69537,c(-122.69537, 38.347174)
"410","94937","21025","Inverness Volunteer Fire Department","50 Inverness WAY","Inverness","CA","50 Inverness WAY Inverness, CA 94937",38.099205,-122.87751,c(-122.87751, 38.099205)
"411","94939","21035","Larkspur Fire Department","400 Magnolia AVE","Larkspur","CA","400 Magnolia AVE Larkspur, CA 94939",37.936151,-122.5355,c(-122.5355, 37.936151)
"412","94941","21040","Mill Valley Fire Department","1 Hamilton DR","Mill Valley","CA","1 Hamilton DR Mill Valley, CA 94941",37.898058,-122.54134,c(-122.54134, 37.898058)
"413","94941","21045","Southern Marin Fire Protection District","308 Reed BLVD","Mill Valley","CA","308 Reed BLVD Mill Valley, CA 94941",37.898058,-122.54134,c(-122.54134, 37.898058)
"414","94945","21055","Novato Fire Protection District","7025 Redwood BLVD","Novato","CA","7025 Redwood BLVD Novato, CA 94945",38.117065,-122.56316,c(-122.56316, 38.117065)
"415","94946","21086","Nicasio Volunteer Fire Department","5 Old Rancheria RD","Nicasio","CA","5 Old Rancheria RD Nicasio, CA 94946",38.050454,-122.67866,c(-122.67866, 38.050454)
"416","94946","21092","Skywalker Ranch Fire Brigade","5858 Lucas Valley RD","Nicasio","CA","5858 Lucas Valley RD Nicasio, CA 94946",38.050454,-122.67866,c(-122.67866, 38.050454)
"417","94951","49110","Rancho Adobe Fire Protection District","11000 Main ST","Penngrove","CA","11000 Main ST Penngrove, CA 94951",38.314531,-122.66097,c(-122.66097, 38.314531)
"418","94952","49130","Wilmar Volunteer Fire Department","3825 Bodega AVE","Petaluma","CA","3825 Bodega AVE Petaluma, CA 94952",38.243734,-122.69345,c(-122.69345, 38.243734)
"419","94952","49115","Petaluma Fire Department","198 D ST","Petaluma","CA","198 D ST Petaluma, CA 94952",38.243734,-122.69345,c(-122.69345, 38.243734)
"420","94952","49250","San Antonio Volunteer Fire Company","1550 Petaluma BLVD S","Petaluma","CA","1550 Petaluma BLVD S Petaluma, CA 94952",38.243734,-122.69345,c(-122.69345, 38.243734)
"421","94954","49095","Lakeville Volunteer Fire Department","5100 Lakeville HWY","Petaluma","CA","5100 Lakeville HWY Petaluma, CA 94954",38.243299,-122.6069,c(-122.6069, 38.243299)
"422","94957","21060","Ross Fire Department","33 Sir Francis Drake BLVD","Ross","CA","33 Sir Francis Drake BLVD Ross, CA 94957",38.022322,-122.561689,c(-122.561689, 38.022322)
"423","94960","21065","Ross Valley Fire Department","777 San Anselmo AVE","San Anselmo","CA","777 San Anselmo AVE San Anselmo, CA 94960",37.981623,-122.56884,c(-122.56884, 37.981623)
"424","94965","21085","Muir Beach Volunteer Fire Department","Star RT Box A","Muir Beach","CA","Star RT Box A Muir Beach, CA 94965",37.855527,-122.49949,c(-122.49949, 37.855527)
"425","94965","21090","Sausalito Fire Department","333 Johnson ST","Sausalito","CA","333 Johnson ST Sausalito, CA 94965",37.855527,-122.49949,c(-122.49949, 37.855527)
"426","94970","21095","Stinson Beach Fire Protection District","3410 Shoreline HWY","Stinson Beach","CA","3410 Shoreline HWY Stinson Beach, CA 94970",37.903396,-122.65043,c(-122.65043, 37.903396)
"427","94972","49210","Valley Ford Volunteer Fire Department","14445 Highway 1","Valley Ford","CA","14445 Highway 1 Valley Ford, CA 94972",38.335515,-122.9392,c(-122.9392, 38.335515)
"428","94973","21105","Marin County Fire Department","33 Castle Rock RD","Woodacre","CA","33 Castle Rock RD Woodacre, CA 94973",38.007639,-122.63914,c(-122.63914, 38.007639)
"429","95003","44005","Aptos/ La Selva Fire Protection District","6934 Soquel DR","Aptos","CA","6934 Soquel DR Aptos, CA 95003",36.979333,-121.8944,c(-121.8944, 36.979333)
"430","95005","44015","Ben Lomond Fire Protection District","9430 Highway 9","Ben Lomond","CA","9430 Highway 9 Ben Lomond, CA 95005",37.084347,-122.08524,c(-122.08524, 37.084347)
"431","95006","44020","Boulder Creek Fire Protection District","13230 Central AVE","Boulder Creek","CA","13230 Central AVE Boulder Creek, CA 95006",37.151813,-122.13679,c(-122.13679, 37.151813)
"432","95012","27025","North County Fire Protection District of Monterey County","11200 Speegle ST","Castroville","CA","11200 Speegle ST Castroville, CA 95012",36.768856,-121.75105,c(-121.75105, 36.768856)
"433","95014","43145","Stevens Creek Volunteer Fire Department","13826 Stevens Canyon RD","Cupertino","CA","13826 Stevens Canyon RD Cupertino, CA 95014",37.317909,-122.04779,c(-122.04779, 37.317909)
"434","95018","44040","Zayante Fire Protection District","7700 E Zayante RD","Felton","CA","7700 E Zayante RD Felton, CA 95018",37.057708,-122.05967,c(-122.05967, 37.057708)
"435","95018","44095","Santa Cruz County Fire Department","6059 Highway 9","Felton","CA","6059 Highway 9 Felton, CA 95018",37.057708,-122.05967,c(-122.05967, 37.057708)
"436","95018","44035","Felton Fire Protection District","131 Kirby ST","Felton","CA","131 Kirby ST Felton, CA 95018",37.057708,-122.05967,c(-122.05967, 37.057708)
"437","95019","44080","Watsonville Fire Department","372 Airport BLVD","Freedom","CA","372 Airport BLVD Freedom, CA 95019",36.935552,-121.77972,c(-121.77972, 36.935552)
"438","95020","43010","Gilroy Fire Department","7070 Chestnut ST","Gilroy","CA","7070 Chestnut ST Gilroy, CA 95020",37.016943,-121.56581,c(-121.56581, 37.016943)
"439","95023","35010","Hollister Fire Department","110 Fifth ST","Hollister","CA","110 Fifth ST Hollister, CA 95023",36.862243,-121.38006,c(-121.38006, 36.862243)
"440","95032","43080","Santa Clara County Fire Department","14700 Winchester BLVD","Los Gatos","CA","14700 Winchester BLVD Los Gatos, CA 95032",37.241193,-121.9534,c(-121.9534, 37.241193)
"441","95035","43030","Milpitas Fire Department","777 S Main ST","Milpitas","CA","777 S Main ST Milpitas, CA 95035",37.436451,-121.89438,c(-121.89438, 37.436451)
"442","95037","43150","Uvas Volunteer Fire Department","5770 Croy RD","Morgan Hill","CA","5770 Croy RD Morgan Hill, CA 95037",37.137595,-121.66211,c(-121.66211, 37.137595)
"443","95037","43045","South Santa Clara County Fire District","15670 Monterey ST","Morgan Hill","CA","15670 Monterey ST Morgan Hill, CA 95037",37.137595,-121.66211,c(-121.66211, 37.137595)
"444","95037","43907","CDF Santa Clara","15670 Monterey ST","Morgan Hill","CA","15670 Monterey ST Morgan Hill, CA 95037",37.137595,-121.66211,c(-121.66211, 37.137595)
"445","95037","43040","Morgan Hill City Fire Department","18300 Old Monterey RD","Morgan Hill","CA","18300 Old Monterey RD Morgan Hill, CA 95037",37.137595,-121.66211,c(-121.66211, 37.137595)
"446","95045","35035","San Juan Bautista Fire Department","311 Second ST","San Juan Bautista","CA","311 Second ST San Juan Bautista, CA 95045",36.829052,-121.52848,c(-121.52848, 36.829052)
"447","95050","43090","Santa Clara Fire Department","777 Benton ST","Santa Clara","CA","777 Benton ST Santa Clara, CA 95050",37.347791,-121.95131,c(-121.95131, 37.347791)
"448","95060","44055","Santa Cruz Fire Department","230 Walnut AVE","Santa Cruz","CA","230 Walnut AVE Santa Cruz, CA 95060",36.980556,-122.04603,c(-122.04603, 36.980556)
"449","95062","44065","Central Fire Protection District of Santa Cruz County","930 17TH AVE","Santa Cruz","CA","930 17TH AVE Santa Cruz, CA 95062",36.9707,-121.99086,c(-121.99086, 36.9707)
"450","95064","44760","UCSC Fire Department","1156  High ST","Santa Cruz","CA","1156  High ST Santa Cruz, CA 95064",37.000199,-122.06026,c(-122.06026, 37.000199)
"451","95065","44060","Branciforte Fire Protection District","2711 Branciforte DR","Santa Cruz","CA","2711 Branciforte DR Santa Cruz, CA 95065",37.010322,-121.98523,c(-121.98523, 37.010322)
"452","95066","44070","Scotts Valley Fire Protection District","7 Erba LN","Scotts Valley","CA","7 Erba LN Scotts Valley, CA 95066",37.057575,-122.01507,c(-122.01507, 37.057575)
"453","95070","43100","Saratoga Fire District","14380 Saratoga AVE","Saratoga","CA","14380 Saratoga AVE Saratoga, CA 95070",37.270543,-122.02305,c(-122.02305, 37.270543)
"454","95076","44045","Pajaro Valley Fire Protection District","562 Casserly RD","Watsonville","CA","562 Casserly RD Watsonville, CA 95076",36.922902,-121.77224,c(-121.77224, 36.922902)
"455","95112","43070","San Jose Fire Department","1661 Senter RD STE 300","San Jose","CA","1661 Senter RD STE 300 San Jose, CA 95112",37.348541,-121.88627,c(-121.88627, 37.348541)
"456","95132","43140","Spring Valley Volunteer Fire Department","5579 Sweigert RD","San Jose","CA","5579 Sweigert RD San Jose, CA 95132",37.405989,-121.84775,c(-121.84775, 37.405989)
"457","95202","39065","Stockton Fire Department","425 N El Dorado ST","Stockton","CA","425 N El Dorado ST Stockton, CA 95202",37.958723,-121.28805,c(-121.28805, 37.958723)
"458","95206","39095","Montezuma Fire Protection District","2405 S ""B"" ST","Stockton","CA","2405 S ""B"" ST Stockton, CA 95206",37.922024,-121.3025,c(-121.3025, 37.922024)
"459","95212","39105","Waterloo Morada RFPD","6925 E Foppiano LN","Stockton","CA","6925 E Foppiano LN Stockton, CA 95212",38.038906,-121.24213,c(-121.24213, 38.038906)
"460","95215","39075","Collegeville Fire Protection District","13225 E Mariposa RD","Stockton","CA","13225 E Mariposa RD Stockton, CA 95215",37.955474,-121.19064,c(-121.19064, 37.955474)
"461","95220","39010","Liberty Rural County Fire Protection District","24124 N Bruella RD","Acampo","CA","24124 N Bruella RD Acampo, CA 95220",38.200193,-121.23505,c(-121.23505, 38.200193)
"462","95221","05005","Altaville Melones Fire Protection District","148 Monte Verde ST","Altaville","CA","148 Monte Verde ST Altaville, CA 95221",38.077,-120.55401,c(-120.55401, 38.077)
"463","95222","05010","Angels Camp Volunteer Fire Department","1404 Highway 4","Angels Camp","CA","1404 Highway 4 Angels Camp, CA 95222",38.087437,-120.58072,c(-120.58072, 38.087437)
"464","95223","02008","Bear Valley Fire Department","88 Bear Valley RD","Bear Valley","CA","88 Bear Valley RD Bear Valley, CA 95223",38.282255,-120.28875,c(-120.28875, 38.282255)
"465","95223","05015","Ebbetts Pass Fire Department","1028 Manuel RD","Arnold","CA","1028 Manuel RD Arnold, CA 95223",38.282255,-120.28875,c(-120.28875, 38.282255)
"466","95225","05040","Foothill Fire Protection District","3255 Helisma RD","Burson","CA","3255 Helisma RD Burson, CA 95225",38.183288,-120.89487,c(-120.89487, 38.183288)
"467","95227","39020","Clements Rural Fire Protection District","18901 E HWY 88 HWY","Clements","CA","18901 E HWY 88 HWY Clements, CA 95227",38.205817,-121.05361,c(-121.05361, 38.205817)
"468","95228","05020","Copperopolis Fire Protection District","370 Main ST","Copperopolis","CA","370 Main ST Copperopolis, CA 95228",37.942532,-120.65786,c(-120.65786, 37.942532)
"469","95230","39030","Farmington Fire Department","25474 E Hwy 4","Farmington","CA","25474 E Hwy 4 Farmington, CA 95230",37.959439,-120.82329,c(-120.82329, 37.959439)
"470","95231","39085","French Camp-McKinley Fire District","310 E French Camp RD","French Camp","CA","310 E French Camp RD French Camp, CA 95231",37.882742,-121.27978,c(-121.27978, 37.882742)
"471","95236","39040","Linden-Peters Rural County Fire Protection District","17725 E Highway 26","Linden","CA","17725 E Highway 26 Linden, CA 95236",38.018456,-121.05675,c(-121.05675, 38.018456)
"472","95237","39125","Mokelumne Rural Fire District","13157 E Brandt RD","Lockeford","CA","13157 E Brandt RD Lockeford, CA 95237",38.162818,-121.14855,c(-121.14855, 38.162818)
"473","95240","39045","Lodi Fire Department","25 E Pine ST","Lodi","CA","25 E Pine ST Lodi, CA 95240",38.12463,-121.25039,c(-121.25039, 38.12463)
"474","95241","34055","Isleton Fire Department","100 Second ST","Isleton","CA","100 Second ST Isleton, CA 95241",37.889849,-121.253872,c(-121.253872, 37.889849)
"475","95245","05025","Mokelumne Hill Fire Protection District","8160 Church ST","Mokelumne Hill","CA","8160 Church ST Mokelumne Hill, CA 95245",38.300688,-120.62632,c(-120.62632, 38.300688)
"476","95246","05018","Mountain Fire/Rescue Volunteer Fire Company","PO Box 259","Mountain Ranch","CA","PO Box 259 Mountain Ranch, CA 95246",38.26127,-120.50328,c(-120.50328, 38.26127)
"477","95246","05060","Central Calaveras Fire & Rescue Protection District","19927 Jesus Maria RD","Mountain Ranch","CA","19927 Jesus Maria RD Mountain Ranch, CA 95246",38.26127,-120.50328,c(-120.50328, 38.26127)
"478","95247","05030","Murphys Fire Protection District","37 Jones ST","Murphys","CA","37 Jones ST Murphys, CA 95247",38.146124,-120.45458,c(-120.45458, 38.146124)
"479","95249","05065","Calaveras County Fire & Emergency Services","891 Mountain Ranch RD","San Andreas","CA","891 Mountain Ranch RD San Andreas, CA 95249",38.192823,-120.64285,c(-120.64285, 38.192823)
"480","95249","05035","San Andreas Fire Protection District","37 Church Hill RD","San Andreas","CA","37 Church Hill RD San Andreas, CA 95249",38.192823,-120.64285,c(-120.64285, 38.192823)
"481","95252","05045","Jenny Lind Fire Protection District","6501 Jenny Lind RD","Valley Springs","CA","6501 Jenny Lind RD Valley Springs, CA 95252",38.145601,-120.85733,c(-120.85733, 38.145601)
"482","95255","05050","West Point Fire District","195 Spink RD","West Point","CA","195 Spink RD West Point, CA 95255",38.421689,-120.46947,c(-120.46947, 38.421689)
"483","95258","39130","Woodbridge Fire Protection District","400 E Augusta ST","Woodbridge","CA","400 E Augusta ST Woodbridge, CA 95258",38.154118,-121.306,c(-121.306, 38.154118)
"484","95301","24035","Merced County Fire Department","3500 N Apron AVE","Atwater","CA","3500 N Apron AVE Atwater, CA 95301",37.35115,-120.6056,c(-120.6056, 37.35115)
"485","95301","24005","Atwater Fire Department","699 Broadway","Atwater","CA","699 Broadway Atwater, CA 95301",37.35115,-120.6056,c(-120.6056, 37.35115)
"486","95307","50005","Ceres Emergency Services - Fire Division","2755 Third ST","Ceres","CA","2755 Third ST Ceres, CA 95307",37.584282,-120.95064,c(-120.95064, 37.584282)
"487","95310","55005","Columbia Fire Protection District","PO Box 311","Columbia","CA","PO Box 311 Columbia, CA 95310",38.060956,-120.39216,c(-120.39216, 38.060956)
"488","95313","50115","Mountain View Fire Protection District","9633 Crows Landing RD","Crows Landing","CA","9633 Crows Landing RD Crows Landing, CA 95313",37.413659,-121.05649,c(-121.05649, 37.413659)
"489","95316","50015","Denair Volunteer Fire Department","3918 Gratton RD","Denair","CA","3918 Gratton RD Denair, CA 95316",37.552329,-120.78463,c(-120.78463, 37.552329)
"490","95320","39025","Escalon Consolidated Fire District","1749 Coley AVE","Escalon","CA","1749 Coley AVE Escalon, CA 95320",37.797806,-121.00179,c(-121.00179, 37.797806)
"491","95321","55045","Groveland Community Service District Fire Department","18930 Highway 120","Groveland","CA","18930 Highway 120 Groveland, CA 95321",37.840248,-120.04541,c(-120.04541, 37.840248)
"492","95322","24015","Gustine Volunteer Fire Department","686 3rd AVE","Gustine","CA","686 3rd AVE Gustine, CA 95322",37.187494,-121.03232,c(-121.03232, 37.187494)
"493","95326","50030","Hughson Fire Protection District","2315 Charles ST","Hughson","CA","2315 Charles ST Hughson, CA 95326",37.59471,-120.86419,c(-120.86419, 37.59471)
"494","95327","55410","Sierra Conservation Center","5100 O'Byrnes Ferry RD","Jamestown","CA","5100 O'Byrnes Ferry RD Jamestown, CA 95327",37.867243,-120.49157,c(-120.49157, 37.867243)
"495","95328","50150","Keyes Fire Protection District","5629 7TH ST","Keyes","CA","5629 7TH ST Keyes, CA 95328",37.5596,-120.9141,c(-120.9141, 37.5596)
"496","95329","50140","La Grange Fire Department","Main ST","La Grange","CA","Main ST La Grange, CA 95329",37.694235,-120.42421,c(-120.42421, 37.694235)
"497","95330","39055","Lathrop-Manteca Fire District","800 J ST","Lathrop","CA","800 J ST Lathrop, CA 95330",37.816876,-121.28541,c(-121.28541, 37.816876)
"498","95337","39050","Manteca Fire Department","1154 S Union RD","Manteca","CA","1154 S Union RD Manteca, CA 95337",37.782332,-121.23578,c(-121.23578, 37.782332)
"499","95338","22045","Mariposa Public Utility District Fire Department","4992 7TH ST","Mariposa","CA","4992 7TH ST Mariposa, CA 95338",37.505484,-119.92527,c(-119.92527, 37.505484)
"500","95338","22025","Mariposa County Fire Department","4802 Highway 140","Mariposa","CA","4802 Highway 140 Mariposa, CA 95338",37.505484,-119.92527,c(-119.92527, 37.505484)
"501","95340","24030","City of Merced Fire Department","99 E 16TH ST","Merced","CA","99 E 16TH ST Merced, CA 95340",37.294648,-120.47474,c(-120.47474, 37.294648)
"502","95345","","Midpines Volunteer Fire Department","6429 HWY 140","Midpines","CA","6429 HWY 140 Midpines, CA 95345",37.576262,-119.94865,c(-119.94865, 37.576262)
"503","95346","55015","Mi-Wuk Sugar Pine Fire Protection District","24247 Highway 108","Mi Wuk Village","CA","24247 Highway 108 Mi Wuk Village, CA 95346",38.079632,-120.16872,c(-120.16872, 38.079632)
"504","95351","50045","Burbank Paradise Fire District","1313 Beverly DR","Modesto","CA","1313 Beverly DR Modesto, CA 95351",37.626067,-120.99955,c(-120.99955, 37.626067)
"505","95354","50040","Modesto Fire Department","600 11TH ST","Modesto","CA","600 11TH ST Modesto, CA 95354",37.644481,-120.98043,c(-120.98043, 37.644481)
"506","95358","50070","Woodland Avenue Fire Protection District","3300 Woodland AVE","Modesto","CA","3300 Woodland AVE Modesto, CA 95358",37.622898,-121.05181,c(-121.05181, 37.622898)
"507","95358","50065","Westport Fire Protection District","5160 S Carpenter RD","Modesto","CA","5160 S Carpenter RD Modesto, CA 95358",37.622898,-121.05181,c(-121.05181, 37.622898)
"508","95360","50080","City of Newman Fire Department","1162 N ST","Newman","CA","1162 N ST Newman, CA 95360",37.312014,-121.0314,c(-121.0314, 37.312014)
"509","95361","50085","Oakdale City Fire Department","325 East G ST","Oakdale","CA","325 East G ST Oakdale, CA 95361",37.776528,-120.84756,c(-120.84756, 37.776528)
"510","95361","50090","Oakdale Rural Fire Protection District","1398 East F ST","Oakdale","CA","1398 East F ST Oakdale, CA 95361",37.776528,-120.84756,c(-120.84756, 37.776528)
"511","95363","50130","Patterson Fire Department","344 W Las Palmas","Patterson","CA","344 W Las Palmas Patterson, CA 95363",37.477477,-121.14555,c(-121.14555, 37.477477)
"512","95363","50100","West Stanislaus County Fire Protection District","344 W Las Palmas AVE","Patterson","CA","344 W Las Palmas AVE Patterson, CA 95363",37.477477,-121.14555,c(-121.14555, 37.477477)
"513","95364","55555","USDA Forest Service Summit R.D.","1 Pinecrest Lake RD","Pinecrest","CA","1 Pinecrest Lake RD Pinecrest, CA 95364",38.275328,-119.89619,c(-119.89619, 38.275328)
"514","95366","39060","Ripon Fire District","142 S Stockton AVE","Ripon","CA","142 S Stockton AVE Ripon, CA 95366",37.742895,-121.12546,c(-121.12546, 37.742895)
"515","95367","50075","Stanislaus Consolidated Fire Protection District","3324 Topeka ST","Riverbank","CA","3324 Topeka ST Riverbank, CA 95367",37.731272,-120.94365,c(-120.94365, 37.731272)
"516","95368","50060","Salida Fire Protection District","4820 Salida BLVD","Salida","CA","4820 Salida BLVD Salida, CA 95368",37.708727,-121.08928,c(-121.08928, 37.708727)
"517","95370","55020","City of Sonora Fire Department","201 S Shepherd ST","Sonora","CA","201 S Shepherd ST Sonora, CA 95370",37.995238,-120.3437,c(-120.3437, 37.995238)
"518","95370","55010","Jamestown Fire Protection District","18440 Striker CT","Sonora","CA","18440 Striker CT Sonora, CA 95370",37.995238,-120.3437,c(-120.3437, 37.995238)
"519","95370","55050","Tuolumne County Fire Department","18440 Striker CT","Sonora","CA","18440 Striker CT Sonora, CA 95370",37.995238,-120.3437,c(-120.3437, 37.995238)
"520","95375","55025","Strawberry Volunteer Fire Department","27217 Tananger LN","Strawberry","CA","27217 Tananger LN Strawberry, CA 95375",38.184096,-120.021342,c(-120.021342, 38.184096)
"521","95376","39120","South San Joaquin County Fire Authority","835 N Central AVE","Tracy","CA","835 N Central AVE Tracy, CA 95376",37.728417,-121.42399,c(-121.42399, 37.728417)
"522","95378","39410","Deuel Vocational Institution Fire Dept","23500 Kasson RD","Tracy","CA","23500 Kasson RD Tracy, CA 95378",37.889849,-121.253872,c(-121.253872, 37.889849)
"523","95379","55030","Tuolumne Fire District","18690 Main ST","Tuolumne","CA","18690 Main ST Tuolumne, CA 95379",37.957978,-120.2297,c(-120.2297, 37.957978)
"524","95380","50120","Turlock Rural Fire Protection District","690 W Canal DR","Turlock","CA","690 W Canal DR Turlock, CA 95380",37.48858,-120.85196,c(-120.85196, 37.48858)
"525","95380","50110","Turlock Fire and Emergency Services","244 N Broadway","Turlock","CA","244 N Broadway Turlock, CA 95380",37.48858,-120.85196,c(-120.85196, 37.48858)
"526","95383","55035","Twain Harte C.S.D.- Fire Division","18781 Cedar DR","Twain Harte","CA","18781 Cedar DR Twain Harte, CA 95383",38.055888,-120.23002,c(-120.23002, 38.055888)
"527","95403","49201","Sonoma County Department of Fire and Emergency Services","2300 County Center DR","Santa Rosa","CA","2300 County Center DR Santa Rosa, CA 95403",38.480494,-122.74976,c(-122.74976, 38.480494)
"528","95404","49160","Bennett Valley Fire Protection District","6161 Bennett Valley RD","Santa Rosa","CA","6161 Bennett Valley RD Santa Rosa, CA 95404",38.457611,-122.69317,c(-122.69317, 38.457611)
"529","95407","49145","Santa Rosa Fire Department","2373 Circadian WAY","Santa Rosa","CA","2373 Circadian WAY Santa Rosa, CA 95407",38.404991,-122.7275,c(-122.7275, 38.404991)
"530","95412","49905","Annapolis Volunteer Fire Department","36303 Annapolis RD","Annapolis","CA","36303 Annapolis RD Annapolis, CA 95412",38.717819,-123.32757,c(-123.32757, 38.717819)
"531","95415","23010","Anderson Valley Fire Department","14281 Highway 128","Boonville","CA","14281 Highway 128 Boonville, CA 95415",39.026811,-123.38621,c(-123.38621, 39.026811)
"532","95419","49030","Camp Meeker Volunteeer Fire Company, Fire Division","5240 Bohemian HWY","Camp Meeker","CA","5240 Bohemian HWY Camp Meeker, CA 95419",38.424554,-122.96067,c(-122.96067, 38.424554)
"533","95421","49035","Cazadero Volunteer Fire Department","5985 Cazadero Highway","Cazadero","CA","5985 Cazadero Highway Cazadero, CA 95421",38.562843,-123.16785,c(-123.16785, 38.562843)
"534","95421","49225","Timber Cove Fire Protection District","30800 Seaview RD","Cazadero","CA","30800 Seaview RD Cazadero, CA 95421",38.562843,-123.16785,c(-123.16785, 38.562843)
"535","95422","17005","Lake County Fire Protection District","14815 Olympic DR","Clearlake","CA","14815 Olympic DR Clearlake, CA 95422",38.956206,-122.63523,c(-122.63523, 38.956206)
"536","95425","49040","Cloverdale Fire Protection District","116 Broad ST","Cloverdale","CA","116 Broad ST Cloverdale, CA 95425",38.795668,-122.997,c(-122.997, 38.795668)
"537","95427","23015","Comptche Volunteer Fire Department","8491 Flynn Creek RD","Comptche","CA","8491 Flynn Creek RD Comptche, CA 95427",39.240872,-123.54765,c(-123.54765, 39.240872)
"538","95428","23020","Covelo Fire Protection District","PO Box 36","Covelo","CA","PO Box 36 Covelo, CA 95428",39.825781,-123.23026,c(-123.23026, 39.825781)
"539","95431","49490","Eldridge Fire Department","15000 Arnold DR","Eldridge","CA","15000 Arnold DR Eldridge, CA 95431",38.347913,-122.51753,c(-122.51753, 38.347913)
"540","95432","23025","Elk Volunteer Fire Department","End of Louisa ST","Elk","CA","End of Louisa ST Elk, CA 95432",39.103897,-123.64617,c(-123.64617, 39.103897)
"541","95436","49050","Forestville Fire Protection District","6554 Mirabel RD","Forestville","CA","6554 Mirabel RD Forestville, CA 95436",38.495857,-122.90636,c(-122.90636, 38.495857)
"542","95437","23030","Fort Bragg Fire Department","141 N Main ST","Fort Bragg","CA","141 N Main ST Fort Bragg, CA 95437",39.43695,-123.76087,c(-123.76087, 39.43695)
"543","95441","49055","Geyserville Fire Protection District","20975 Geyserville AVE","Geyserville","CA","20975 Geyserville AVE Geyserville, CA 95441",38.710228,-122.95704,c(-122.95704, 38.710228)
"544","95442","49930","Mayacamas Volunteer Fire Department, Inc.","3252 Trinity RD","Glen Ellen","CA","3252 Trinity RD Glen Ellen, CA 95442",38.367948,-122.52468,c(-122.52468, 38.367948)
"545","95442","49060","Glen Ellen Fire Department","13445 Arnold DR","Glen Ellen","CA","13445 Arnold DR Glen Ellen, CA 95442",38.367948,-122.52468,c(-122.52468, 38.367948)
"546","95444","49065","Graton Fire Protection District","3205 Ross RD","Graton","CA","3205 Ross RD Graton, CA 95444",38.434663,-122.8689,c(-122.8689, 38.434663)
"547","95445","23040","South Coast Fire Protection District","39215 Church ST","Gualala","CA","39215 Church ST Gualala, CA 95445",38.813417,-123.55762,c(-123.55762, 38.813417)
"548","95446","49075","Russian River Fire Protection District","14100 Armstron Woods RD","Guerneville","CA","14100 Armstron Woods RD Guerneville, CA 95446",38.509737,-123.00084,c(-123.00084, 38.509737)
"549","95448","49080","Healdsburg Fire Department","601 Healdsburg AVE","Healdsburg","CA","601 Healdsburg AVE Healdsburg, CA 95448",38.614088,-122.87626,c(-122.87626, 38.614088)
"550","95449","23100","Hopland Volunteer Fire Department","25 Center ST","Hopland","CA","25 Center ST Hopland, CA 95449",38.955142,-123.08125,c(-123.08125, 38.955142)
"551","95451","17020","Kelseyville Fire Protection District","4020 Main ST","Kelseyville","CA","4020 Main ST Kelseyville, CA 95451",38.939725,-122.78548,c(-122.78548, 38.939725)
"552","95452","49090","Kenwood Fire Protection District","9045 Sowoma HWY","Kenwood","CA","9045 Sowoma HWY Kenwood, CA 95452",38.414061,-122.54668,c(-122.54668, 38.414061)
"553","95453","17025","Lakeport Fire Protection District","445 N Main ST","Lakeport","CA","445 N Main ST Lakeport, CA 95453",39.051698,-122.92071,c(-122.92071, 39.051698)
"554","95454","23045","Long Valley Fire Protection District","44954 Willis AVE","Laytonville","CA","44954 Willis AVE Laytonville, CA 95454",39.745588,-123.5223,c(-123.5223, 39.745588)
"555","95458","17055","Northshore Fire Protection District","6257 7TH AVE","Lucerne","CA","6257 7TH AVE Lucerne, CA 95458",39.090421,-122.78972,c(-122.78972, 39.090421)
"556","95459","23915","Irish Beach Water District Volunteer Fire Department","15401 Forestview RD","Manchester","CA","15401 Forestview RD Manchester, CA 95459",38.996389,-123.66468,c(-123.66468, 38.996389)
"557","95460","23050","Mendocino Volunteer Fire Department","44700 Little Lake RD","Mendocino","CA","44700 Little Lake RD Mendocino, CA 95460",39.311858,-123.79166,c(-123.79166, 39.311858)
"558","95461","17040","South Lake Couny Fire Protection District","21095 State Highway 175","Middletown","CA","21095 State Highway 175 Middletown, CA 95461",38.791139,-122.61069,c(-122.61069, 38.791139)
"559","95469","17060","Lake Pillsbury Fire Protection District","29501 Fuller DR","Potter Valley","CA","29501 Fuller DR Potter Valley, CA 95469",39.383027,-123.07856,c(-123.07856, 39.383027)
"560","95470","23070","Redwood Valley Calpella Fire District","8481 East RD","Redwood Valley","CA","8481 East RD Redwood Valley, CA 95470",39.285782,-123.22064,c(-123.22064, 39.285782)
"561","95472","49062","Gold Ridge Fire Protection District","4500 Hessel RD","Sebastopol","CA","4500 Hessel RD Sebastopol, CA 95472",38.393314,-122.83666,c(-122.83666, 38.393314)
"562","95472","49180","Sebastopol Fire Department","7425 Bodega AVE","Sebastopol","CA","7425 Bodega AVE Sebastopol, CA 95472",38.393314,-122.83666,c(-122.83666, 38.393314)
"563","95476","49205","Schell-Vista Fire Protection District","22950 Broadway","Sonoma","CA","22950 Broadway Sonoma, CA 95476",38.277147,-122.47058,c(-122.47058, 38.277147)
"564","95476","49200","Sonoma Valley Fire & Rescue Authority","630 2ND ST W","Sonoma","CA","630 2ND ST W Sonoma, CA 95476",38.277147,-122.47058,c(-122.47058, 38.277147)
"565","95482","23075","Ukiah Fire Department","300 Seminary AVE","Ukiah","CA","300 Seminary AVE Ukiah, CA 95482",39.154946,-123.20088,c(-123.20088, 39.154946)
"566","95482","23080","Ukiah Valley Fire District","1500 S State ST","Ukiah","CA","1500 S State ST Ukiah, CA 95482",39.154946,-123.20088,c(-123.20088, 39.154946)
"567","95488","23910","Westport Volunteer Fire Department","37551 N HWY 1","Westport","CA","37551 N HWY 1 Westport, CA 95488",39.727052,-123.79238,c(-123.79238, 39.727052)
"568","95490","23011","Brooktrails Township Fire Department","24860 Birch ST","Willits","CA","24860 Birch ST Willits, CA 95490",39.451662,-123.37285,c(-123.37285, 39.451662)
"569","95490","23555","California Department of Forestry and Fire Protection","17501 N Highway 101 HWY","Willits","CA","17501 N Highway 101 HWY Willits, CA 95490",39.451662,-123.37285,c(-123.37285, 39.451662)
"570","95490","23090","Little Lake Fire Protection District","74 E Commercial ST","Willits","CA","74 E Commercial ST Willits, CA 95490",39.451662,-123.37285,c(-123.37285, 39.451662)
"571","95492","49170","Rincon Valley Fire Protection District","8200 Old Redwood HWY","Windsor","CA","8200 Old Redwood HWY Windsor, CA 95492",38.54486,-122.80785,c(-122.80785, 38.54486)
"572","95492","49215","Windsor Fire Protection District","8200 Old Redwood HWY","Windsor","CA","8200 Old Redwood HWY Windsor, CA 95492",38.54486,-122.80785,c(-122.80785, 38.54486)
"573","95497","49070","Sea Ranch Volunteer Fire Company, Fire Division","960 Annapolis RD","The Sea Ranch","CA","960 Annapolis RD The Sea Ranch, CA 95497",38.725628,-123.47625,c(-123.47625, 38.725628)
"574","95501","12045","Humboldt Bay Fire Authority","533 C ST","Eureka","CA","533 C ST Eureka, CA 95501",40.793739,-124.16102,c(-124.16102, 40.793739)
"575","95503","12050","Humboldt No. 1 Fire Protection District","3455 Harris ST","Eureka","CA","3455 Harris ST Eureka, CA 95503",40.757091,-124.1513,c(-124.1513, 40.757091)
"576","95519","12140","Arcata Fire Protection District","2149 Central AVE","McKinleyville","CA","2149 Central AVE McKinleyville, CA 95519",40.963482,-124.07286,c(-124.07286, 40.963482)
"577","95519","12020","Fieldbrook Volunteer Fire Department","4584 Fieldbrook RD","Fieldbrook","CA","4584 Fieldbrook RD Fieldbrook, CA 95519",40.963482,-124.07286,c(-124.07286, 40.963482)
"578","95525","12025","Blue Lake Volunteer Fire Department","111 1st AVE","Blue Lake","CA","111 1st AVE Blue Lake, CA 95525",40.907437,-123.88348,c(-123.88348, 40.907437)
"579","95526","12195","Bridgeville Volunteer Fire Department","38717 Kneeland RD","Bridgeville","CA","38717 Kneeland RD Bridgeville, CA 95526",40.413386,-123.53267,c(-123.53267, 40.413386)
"580","95528","12035","Carlotta Volunteer Fire Department","7950 State Highway 36","Carlotta","CA","7950 State Highway 36 Carlotta, CA 95528",40.489925,-123.97132,c(-123.97132, 40.489925)
"581","95531","08010","Crescent Fire Protection District","255 W Washington BLVD","Crescent City","CA","255 W Washington BLVD Crescent City, CA 95531",41.782681,-124.16703,c(-124.16703, 41.782681)
"582","95531","08410","Pelican Bay State Prison","5905 Lake Earl DR","Crescent City","CA","5905 Lake Earl DR Crescent City, CA 95531",41.782681,-124.16703,c(-124.16703, 41.782681)
"583","95536","12055","Ferndale Fire Protection District","436 Brown ST","Ferndale","CA","436 Brown ST Ferndale, CA 95536",40.561448,-124.25781,c(-124.25781, 40.561448)
"584","95538","08015","Fort Dick Fire Protection District","6534 Kings Valley RD","Fort Dick","CA","6534 Kings Valley RD Fort Dick, CA 95538",41.892473,-124.145734,c(-124.145734, 41.892473)
"585","95540","12060","Fortuna Volunteer Fire Department","320 N Fortuna BLVD","Fortuna","CA","320 N Fortuna BLVD Fortuna, CA 95540",40.583488,-124.14367,c(-124.14367, 40.583488)
"586","95540","47557","California Department of Forestry","118 Fortuna BLVD","Fortuna","CA","118 Fortuna BLVD Fortuna, CA 95540",40.583488,-124.14367,c(-124.14367, 40.583488)
"587","95540","12555","CDF Humboldt / Del Norte Unit","118 Fortuna BLVD","Fortuna","CA","118 Fortuna BLVD Fortuna, CA 95540",40.583488,-124.14367,c(-124.14367, 40.583488)
"588","95542","12991","Palo Verde Volunteer Fire Department","2729 Island Mountian RD","Garberville","CA","2729 Island Mountian RD Garberville, CA 95542",40.0985,-123.80654,c(-123.80654, 40.0985)
"589","95542","12065","Garberville Fire Protection District","680 Locust ST","Garberville","CA","680 Locust ST Garberville, CA 95542",40.0985,-123.80654,c(-123.80654, 40.0985)
"590","95543","08020","Gasquet Fire Department","100 Firehouse  RD","Gasquet","CA","100 Firehouse  RD Gasquet, CA 95543",41.888557,-123.80079,c(-123.80079, 41.888557)
"591","95545","12047","Honeydew Volunteer Fire Company","PO Box 74","Honeydew","CA","PO Box 74 Honeydew, CA 95545",40.281369,-124.08998,c(-124.08998, 40.281369)
"592","95546","12030","Hoopa Volunteer Fire Department","Highway 96","Hoopa","CA","Highway 96 Hoopa, CA 95546",41.161505,-123.72444,c(-123.72444, 41.161505)
"593","95549","12067","Kneeland Volunteer Fire Department","6201 Greenwood Heights","Kneeland","CA","6201 Greenwood Heights Kneeland, CA 95549",40.691578,-123.87189,c(-123.87189, 40.691578)
"594","95553","12145","Miranda Volunteer Fire Department","115 School RD","Miranda","CA","115 School RD Miranda, CA 95553",40.210793,-123.86447,c(-123.86447, 40.210793)
"595","95554","12155","Fruitland Volunteer Fire Company, Inc.","75 Kelsey LN","Myers Flat","CA","75 Kelsey LN Myers Flat, CA 95554",40.2959,-123.77902,c(-123.77902, 40.2959)
"596","95555","12085","Orick Volunteer Fire Department","101 Swan RD","Orick","CA","101 Swan RD Orick, CA 95555",41.296122,-124.05351,c(-124.05351, 41.296122)
"597","95558","12090","Petrolia Volunteer Fire Department","98 Sherman ST","Petrolia","CA","98 Sherman ST Petrolia, CA 95558",40.272963,-124.21494,c(-124.21494, 40.272963)
"598","95559","12150","Phillipsville Volunteer Fire Department","2973 ST HWY 254","Phillipsville","CA","2973 ST HWY 254 Phillipsville, CA 95559",40.196116,-123.77315,c(-123.77315, 40.196116)
"599","95560","12010","Beginnings Volunteer Fire Department","4700 Briceland Thorn RD","Redway","CA","4700 Briceland Thorn RD Redway, CA 95560",40.131417,-123.85855,c(-123.85855, 40.131417)
"600","95560","12095","Redway Fire Protection District","155 Empire LN","Redway","CA","155 Empire LN Redway, CA 95560",40.131417,-123.85855,c(-123.85855, 40.131417)
"601","95562","12100","Rio Dell Fire Protection District","50 W Center ST E","Rio Dell","CA","50 W Center ST E Rio Dell, CA 95562",40.494813,-124.11637,c(-124.11637, 40.494813)
"602","95563","53014","Salyer Volunteer Fire Department","275 Salyer Loop RD","Salyer","CA","275 Salyer Loop RD Salyer, CA 95563",40.89197,-123.56149,c(-123.56149, 40.89197)
"603","95563","53003","Hawkins Bar Volunteer Fire Department","1 Trinity CT","Salyer","CA","1 Trinity CT Salyer, CA 95563",40.89197,-123.56149,c(-123.56149, 40.89197)
"604","95564","12110","Samoa Peninsula Fire District","1982 Gass ST","Samoa","CA","1982 Gass ST Samoa, CA 95564",40.79348,-124.19929,c(-124.19929, 40.79348)
"605","95565","12115","Scotia Volunteer Fire Department","145 Main ST","Scotia","CA","145 Main ST Scotia, CA 95565",40.459978,-124.06059,c(-124.06059, 40.459978)
"606","95567","08050","Smith River Fire Protection District","245 N Haight AVE","Smith River","CA","245 N Haight AVE Smith River, CA 95567",41.949739,-124.15098,c(-124.15098, 41.949739)
"607","95569","12175","Redcrest Volunteer Fire Department","26459 AVE of the Giants","Redcrest","CA","26459 AVE of the Giants Redcrest, CA 95569",40.35983,-123.87105,c(-123.87105, 40.35983)
"608","95571","12125","Weott Volunteer Fire Department","PO Box 269","Weott","CA","PO Box 269 Weott, CA 95571",40.322683,-123.92367,c(-123.92367, 40.322683)
"609","95573","12135","Willow Creek Volunteer Fire Department","51 Willow RD","Willow Creek","CA","51 Willow RD Willow Creek, CA 95573",40.945039,-123.65806,c(-123.65806, 40.945039)
"610","95573","12905","USDA-Forest Service-Six Rivers NF-LTRD","HWY 96 N","Willow Creek","CA","HWY 96 N Willow Creek, CA 95573",40.945039,-123.65806,c(-123.65806, 40.945039)
"611","95585","23115","Leggett Valley Fire And Rescue","65550 S Drive Thru Tree RD","Leggett","CA","65550 S Drive Thru Tree RD Leggett, CA 95585",39.860285,-123.71685,c(-123.71685, 39.860285)
"612","95587","23055","Piercy Fire Protection District","80401 Highway 271","Piercy","CA","80401 Highway 271 Piercy, CA 95587",39.96266,-123.74471,c(-123.74471, 39.96266)
"613","95589","23120","Whale Gulch Volunteer Fire Company","76850B Usal RD","Whitethorn","CA","76850B Usal RD Whitethorn, CA 95589",40.033316,-124.02379,c(-124.02379, 40.033316)
"614","95589","12130","Whitethorn Fire Protection District","Corner of Briceland Thorn RD and Harris Creek RD","Whitethorn","CA","Corner of Briceland Thorn RD and Harris Creek RD Whitethorn, CA 95589",40.033316,-124.02379,c(-124.02379, 40.033316)
"615","95589","12165","Shelter Cove Fire Department","9126 Shelter Cove RD","Whitehorn","CA","9126 Shelter Cove RD Whitehorn, CA 95589",40.033316,-124.02379,c(-124.02379, 40.033316)
"616","95595","53030","Kettenpom Zenia Volunteer Fire Department","Peak RD","Zenia","CA","Peak RD Zenia, CA 95595",40.202464,-123.46646,c(-123.46646, 40.202464)
"617","95602","29042","Higgins Area Fire Protection District","10106 Combie RD","Auburn","CA","10106 Combie RD Auburn, CA 95602",38.976837,-121.09142,c(-121.09142, 38.976837)
"618","95603","31125","Placer County Fire Department","13760 Lincoln Way","Auburn","CA","13760 Lincoln Way Auburn, CA 95603",38.909605,-121.07971,c(-121.07971, 38.909605)
"619","95603","31020","Placer Consolidated Fire Protection District","11645 Atwood RD","Auburn","CA","11645 Atwood RD Auburn, CA 95603",38.909605,-121.07971,c(-121.07971, 38.909605)
"620","95603","31010","Auburn Fire Department","1225 Lincoln Way RM 7","Auburn","CA","1225 Lincoln Way RM 7 Auburn, CA 95603",38.909605,-121.07971,c(-121.07971, 38.909605)
"621","95606","57775","Yocha Dehe Fire Department","14170 Golf Course DR","Brooks","CA","14170 Golf Course DR Brooks, CA 95606",38.857328,-122.21486,c(-122.21486, 38.857328)
"622","95612","57020","Clarksburg Fire Protection District","PO Box 513","Clarksburg","CA","PO Box 513 Clarksburg, CA 95612",38.383366,-121.57819,c(-121.57819, 38.383366)
"623","95615","34015","Courtland Fire Protection District","154 Magnolia AVE","Courtland","CA","154 Magnolia AVE Courtland, CA 95615",38.333568,-121.54853,c(-121.54853, 38.333568)
"624","95616","57760","University of California at Davis Fire Department","1 Shields AVE","Davis","CA","1 Shields AVE Davis, CA 95616",38.549256,-121.73655,c(-121.73655, 38.549256)
"625","95616","57025","City of Davis Fire Department","530 5TH ST","Davis","CA","530 5TH ST Davis, CA 95616",38.549256,-121.73655,c(-121.73655, 38.549256)
"626","95616","57035","West Plainfield Fire Department","24901 County Road 95","Davis","CA","24901 County Road 95 Davis, CA 95616",38.549256,-121.73655,c(-121.73655, 38.549256)
"627","95619","09005","Diamond Springs - El Dorado Fire Protection District","501 Main ST","Diamond Springs","CA","501 Main ST Diamond Springs, CA 95619",38.689067,-120.82071,c(-120.82071, 38.689067)
"628","95620","48015","Dixon Fire Department","205 FORD WAY","DIXON","CA","205 FORD WAY DIXON, CA 95620",38.427208,-121.81348,c(-121.81348, 38.427208)
"629","95624","34020","Cosumnes Community Services District Fire Department","10573 E Stockton BLVD","Elk Grove","CA","10573 E Stockton BLVD Elk Grove, CA 95624",38.421068,-121.36059,c(-121.36059, 38.421068)
"630","95627","57045","Esparto Fire Protection District","16960 Yolo AVE","Esparto","CA","16960 Yolo AVE Esparto, CA 95627",38.744062,-121.99929,c(-121.99929, 38.744062)
"631","95630","34035","Folsom Fire Department","535 Glenn DR","Folsom","CA","535 Glenn DR Folsom, CA 95630",38.672127,-121.15783,c(-121.15783, 38.672127)
"632","95630","34410","Folsom Prison Fire Department","300 Prison RD","Folsom","CA","300 Prison RD Folsom, CA 95630",38.672127,-121.15783,c(-121.15783, 38.672127)
"633","95631","31040","Foresthill Fire Protection District","24320 Main ST","Foresthill","CA","24320 Main ST Foresthill, CA 95631",39.033312,-120.82172,c(-120.82172, 39.033312)
"634","95633","09100","Garden Valley Fire Protection District","4860 Marshall RD","Garden Valley","CA","4860 Marshall RD Garden Valley, CA 95633",38.839773,-120.82881,c(-120.82881, 38.839773)
"635","95634","09020","Georgetown Fire Department","6283 Main ST","Georgetown","CA","6283 Main ST Georgetown, CA 95634",38.930207,-120.78557,c(-120.78557, 38.930207)
"636","95637","57010","Capay Valley Fire Protection District","7447 State HWY 16","Guinda","CA","7447 State HWY 16 Guinda, CA 95637",38.830508,-122.19944,c(-122.19944, 38.830508)
"637","95638","34050","Herald Fire Protection District","12746 Ivie RD","Herald","CA","12746 Ivie RD Herald, CA 95638",38.317665,-121.16166,c(-121.16166, 38.317665)
"638","95640","03015","Jackson Valley Fire Protection District","2701 Quiver DR","Ione","CA","2701 Quiver DR Ione, CA 95640",38.346132,-120.94516,c(-120.94516, 38.346132)
"639","95640","03410","Mule Creek State Prison Fire Dept","4001 Hwy 104","Ione","CA","4001 Hwy 104 Ione, CA 95640",38.346132,-120.94516,c(-120.94516, 38.346132)
"640","95640","03010","City of Ione Fire Department","22 W Jackson ST","Ione","CA","22 W Jackson ST Ione, CA 95640",38.346132,-120.94516,c(-120.94516, 38.346132)
"641","95641","34135","River Delta Fire District","16069 Jackson Slough RD","Isleton","CA","16069 Jackson Slough RD Isleton, CA 95641",38.161756,-121.60428,c(-121.60428, 38.161756)
"642","95642","03006","Amador Fire Protection District","810 Court ST","Jackson","CA","810 Court ST Jackson, CA 95642",38.359772,-120.75324,c(-120.75324, 38.359772)
"643","95642","03020","Jackson Fire Department","33 Broadway","Jackson","CA","33 Broadway Jackson, CA 95642",38.359772,-120.75324,c(-120.75324, 38.359772)
"644","95642","03070","Jackson Rancheria Fire Department","12222 New York Ranch RD","Jackson","CA","12222 New York Ranch RD Jackson, CA 95642",38.359772,-120.75324,c(-120.75324, 38.359772)
"645","95645","57050","Knights Landing Fire Department","42115 Sixth ST","Knights Landing","CA","42115 Sixth ST Knights Landing, CA 95645",38.851198,-121.73354,c(-121.73354, 38.851198)
"646","95646","02010","Kirkwood Volunteer Fire Department","33540 Loop RD","Kirkwood","CA","33540 Loop RD Kirkwood, CA 95646",38.688329,-120.05516,c(-120.05516, 38.688329)
"647","95648","31050","Lincoln Fire Department","126 Joiner PKWY","Lincoln","CA","126 Joiner PKWY Lincoln, CA 95648",38.902873,-121.29795,c(-121.29795, 38.902873)
"648","95650","31055","Loomis Fire Protection District","5840 Horseshoe Bar RD","Loomis","CA","5840 Horseshoe Bar RD Loomis, CA 95650",38.817508,-121.17225,c(-121.17225, 38.817508)
"649","95653","57055","Madison Fire Protection District","17880 Stephens ST","Madison","CA","17880 Stephens ST Madison, CA 95653",38.678663,-121.96907,c(-121.96907, 38.678663)
"650","95658","31066","Newcastle Fire Protection District","9211 Cypress ST","Newcastle","CA","9211 Cypress ST Newcastle, CA 95658",38.87672,-121.14213,c(-121.14213, 38.87672)
"651","95663","31075","Penryn Fire Protection District","7206 Church ST","Penryn","CA","7206 Church ST Penryn, CA 95663",38.859227,-121.17565,c(-121.17565, 38.859227)
"652","95667","09026","Mosquito Fire Protection District","8801 Rock Creek RD","Placerville","CA","8801 Rock Creek RD Placerville, CA 95667",38.724682,-120.79533,c(-120.79533, 38.724682)
"653","95667","09565","Eldorado National Forest","100 Forni RD","Placerville","CA","100 Forni RD Placerville, CA 95667",38.724682,-120.79533,c(-120.79533, 38.724682)
"654","95672","09110","Rescue Fire Protection District","5221 Deer Valley RD","Rescue","CA","5221 Deer Valley RD Rescue, CA 95672",38.71203,-121.0023,c(-121.0023, 38.71203)
"655","95676","51021","Robbins Volunteer Fire Department","17510 Pepper ST","Robbins","CA","17510 Pepper ST Robbins, CA 95676",38.909351,-121.71843,c(-121.71843, 38.909351)
"656","95677","31080","City of Rocklin Fire Department","4060 Rocklin RD","Rocklin","CA","4060 Rocklin RD Rocklin, CA 95677",38.789165,-121.23825,c(-121.23825, 38.789165)
"657","95678","31800","233rd Firefighting Team, CA Army National Guard","850 All America City BLVD","Roseville","CA","850 All America City BLVD Roseville, CA 95678",38.752434,-121.28933,c(-121.28933, 38.752434)
"658","95678","31085","City of Roseville Fire Department","401 Oak ST STE 402","Roseville","CA","401 Oak ST STE 402 Roseville, CA 95678",38.752434,-121.28933,c(-121.28933, 38.752434)
"659","95682","09050","Cameron Park Fire Department","3200 Country Club DR","Cameron Park","CA","3200 Country Club DR Cameron Park, CA 95682",38.641158,-120.97109,c(-120.97109, 38.641158)
"660","95682","09022","Latrobe Fire Protection District","7660 S Shingle RD","Shingle Springs","CA","7660 S Shingle RD Shingle Springs, CA 95682",38.641158,-120.97109,c(-120.97109, 38.641158)
"661","95684","09090","Pioneer Fire Protection District","7061 MT Aukum RD","Somerset","CA","7061 MT Aukum RD Somerset, CA 95684",38.60766,-120.5937,c(-120.5937, 38.60766)
"662","95685","03035","Sutter Creek Fire Protection District","350 Hanford","Sutter Creek","CA","350 Hanford Sutter Creek, CA 95685",38.394464,-120.79015,c(-120.79015, 38.394464)
"663","95686","39115","Thornton Rural Fire District","25999 N Thornton RD","Thornton","CA","25999 N Thornton RD Thornton, CA 95686",38.228976,-121.44032,c(-121.44032, 38.228976)
"664","95688","48065","Vacaville Fire Protection District","420 Vine ST","Vacaville","CA","420 Vine ST Vacaville, CA 95688",38.380528,-121.99192,c(-121.99192, 38.380528)
"665","95688","48060","Vacaville Fire Department","650 Merchant ST","Vacaville","CA","650 Merchant ST Vacaville, CA 95688",38.380528,-121.99192,c(-121.99192, 38.380528)
"666","95689","03022","Lockwood Fire Protection District","23141 Shakeridge  RD","Volcano","CA","23141 Shakeridge  RD Volcano, CA 95689",38.473857,-120.59421,c(-120.59421, 38.473857)
"667","95690","48080","Ryer Island Fire Protection District","9495 ST HWY 220","Walnut Glove","CA","9495 ST HWY 220 Walnut Glove, CA 95690",38.240477,-121.56507,c(-121.56507, 38.240477)
"668","95691","57065","City of West Sacramento Fire Department","2040 Lake Washington BLVD","West Sacramento","CA","2040 Lake Washington BLVD West Sacramento, CA 95691",38.569193,-121.54496,c(-121.54496, 38.569193)
"669","95691","57060","Elkhorn Fire Protection District","19396 County Road 124","West Sacramento","CA","19396 County Road 124 West Sacramento, CA 95691",38.569193,-121.54496,c(-121.54496, 38.569193)
"670","95693","34125","Wilton Fire Protection District","9800 Dillard RD","Wilton","CA","9800 Dillard RD Wilton, CA 95693",38.382367,-121.23708,c(-121.23708, 38.382367)
"671","95694","57070","Winters Fire Department","10 Abbey ST","Winters","CA","10 Abbey ST Winters, CA 95694",38.537434,-121.97757,c(-121.97757, 38.537434)
"672","95695","57075","Woodland Fire Department","1000 Lincoln AVE","Woodland","CA","1000 Lincoln AVE Woodland, CA 95695",38.697238,-121.80944,c(-121.80944, 38.697238)
"673","95695","57085","Willow Oak Fire Protection District","17535 County RD","Woodlane","CA","17535 County RD Woodlane, CA 95695",38.697238,-121.80944,c(-121.80944, 38.697238)
"674","95696","48410","California Medical Facility Fire Department","1600 California DR","Vacaville","CA","1600 California DR Vacaville, CA 95696",38.34896,-121.908324,c(-121.908324, 38.34896)
"675","95697","57090","Yolo Fire Protection District","37720 Sacramento ST","Yolo","CA","37720 Sacramento ST Yolo, CA 95697",38.751038,-121.832156,c(-121.832156, 38.751038)
"676","95698","57095","Zamora Fire Protection District","33715 1st ST","Zamora","CA","33715 1st ST Zamora, CA 95698",38.782731,-121.89811,c(-121.89811, 38.782731)
"677","95701","31005","Alta Fire Protection District","33950 Alta Bonney Nook RD","Alta","CA","33950 Alta Bonney Nook RD Alta, CA 95701",39.217668,-120.78346,c(-120.78346, 39.217668)
"678","95709","09012","El Dorado County Fire Protection District","4040 Carson RD","Camino","CA","4040 Carson RD Camino, CA 95709",38.748112,-120.67463,c(-120.67463, 38.748112)
"679","95713","","Iowa Hill Fire Department","3350 Iowa Hill RD","Iowa Hill","CA","3350 Iowa Hill RD Iowa Hill, CA 95713",39.092062,-120.93471,c(-120.93471, 39.092062)
"680","95713","31030","Colfax Fire Department","33 Church ST","Colfax","CA","33 Church ST Colfax, CA 95713",39.092062,-120.93471,c(-120.93471, 39.092062)
"681","95722","31060","Placer Hills Fire Protection District","16999 Placer Hills RD","Meadow Vista","CA","16999 Placer Hills RD Meadow Vista, CA 95722",39.005098,-121.01891,c(-121.01891, 39.005098)
"682","95728","29080","Donner Summit Fire Department","53823 Sherritt LN","Soda Springs","CA","53823 Sherritt LN Soda Springs, CA 95728",39.311156,-120.41039,c(-120.41039, 39.311156)
"683","95746","31150","South Placer Fire District","6900 Eureka RD","Granite Bay","CA","6900 Eureka RD Granite Bay, CA 95746",38.743811,-121.19013,c(-121.19013, 38.743811)
"684","95762","09015","El Dorado Hills Fire Department","1050 Wilson BLVD","El Dorado Hills","CA","1050 Wilson BLVD El Dorado Hills, CA 95762",38.684324,-121.06879,c(-121.06879, 38.684324)
"685","95813","34003","Aerojet Fire Services","HWY 50 and Hazel AVE","Sacramento","CA","HWY 50 and Hazel AVE Sacramento, CA 95813",38.377411,-121.444429,c(-121.444429, 38.377411)
"686","95814","00555","CA Department of Forestry and Fire Protection- HQ","1416 Ninth ST","Sacramento","CA","1416 Ninth ST Sacramento, CA 95814",38.580255,-121.49125,c(-121.49125, 38.580255)
"687","95822","34080","Sacramento Fire Department","5770 Freeport BLVD STE 200","Sacramento","CA","5770 Freeport BLVD STE 200 Sacramento, CA 95822",38.51394,-121.49201,c(-121.49201, 38.51394)
"688","95825","34090","Sacramento Metropolitan Fire District","2101 Hurley WAY","Sacramento","CA","2101 Hurley WAY Sacramento, CA 95825",38.594205,-121.40726,c(-121.40726, 38.594205)
"689","95837","34140","Sacramento County Airport System Aircraft Rescue & Firefighting","7201 Earhart DR","Sacramento","CA","7201 Earhart DR Sacramento, CA 95837",38.700244,-121.60207,c(-121.60207, 38.700244)
"690","95901","58010","Marysville Fire Department","107 9TH ST","Marysville","CA","107 9TH ST Marysville, CA 95901",39.15973,-121.53735,c(-121.53735, 39.15973)
"691","95901","58005","Linda Fire Protection District","1286 Scales AVE","Marysville","CA","1286 Scales AVE Marysville, CA 95901",39.15973,-121.53735,c(-121.53735, 39.15973)
"692","95901","27013","NorthTree Fire International (NTI)","10674 Ramirez RD","Marysville","CA","10674 Ramirez RD Marysville, CA 95901",39.15973,-121.53735,c(-121.53735, 39.15973)
"693","95901","58008","Loma Rica/Browns Valley CSD","11485 Loma Rica Rd","Marysville","CA","11485 Loma Rica Rd Marysville, CA 95901",39.15973,-121.53735,c(-121.53735, 39.15973)
"694","95912","06005","Arbuckle-College City Fire Protection District","506 Lucas ST","Arbuckle","CA","506 Lucas ST Arbuckle, CA 95912",38.97159,-122.02725,c(-122.02725, 38.97159)
"695","95913","11005","Artois Fire Protection District","740 Main ST","Artois","CA","740 Main ST Artois, CA 95913",39.633265,-122.21009,c(-122.21009, 39.633265)
"696","95919","58004","Foothill Fire Protection District","16796 Willow Glen RD","Brownsville","CA","16796 Willow Glen RD Brownsville, CA 95919",39.453457,-121.26543,c(-121.26543, 39.453457)
"697","95922","58002","Camptonville Fire Department","PO Box 37","Camptonville","CA","PO Box 37 Camptonville, CA 95922",39.469943,-121.07321,c(-121.07321, 39.469943)
"698","95924","29025","Ophir Hill Fire Protection District","12668 Highway 174","Cedar Ridge","CA","12668 Highway 174 Cedar Ridge, CA 95924",39.26599,-120.64145,c(-120.64145, 39.26599)
"699","95928","","Butte Creek Canyon Volunteer Fire Company 26","1726 Honeyrun RD","Chico","CA","1726 Honeyrun RD Chico, CA 95928",39.720955,-121.81888,c(-121.81888, 39.720955)
"700","95928","04010","City of Chico Fire Department","411 Main ST","Chico","CA","411 Main ST Chico, CA 95928",39.720955,-121.81888,c(-121.81888, 39.720955)
"701","95930","32030","LaPorte Volunteer Fire Department","2181 Cedar LN","Clipper Mills","CA","2181 Cedar LN Clipper Mills, CA 95930",39.563522,-121.13191,c(-121.13191, 39.563522)
"702","95932","06015","Colusa Fire Department","750 Market ST","Colusa","CA","750 Market ST Colusa, CA 95932",39.254875,-122.04572,c(-122.04572, 39.254875)
"703","95932","06020","Sacramento River Fire Protection District of Colusa County","235 Market ST","Colusa","CA","235 Market ST Colusa, CA 95932",39.254875,-122.04572,c(-122.04572, 39.254875)
"704","95936","46005","Downieville Fire Protection District","321 Main  ST","Downieville","CA","321 Main  ST Downieville, CA 95936",39.567001,-120.8384,c(-120.8384, 39.567001)
"705","95937","57040","Dunnigan Fire Protection District","29145 Main ST","Dunnigan","CA","29145 Main ST Dunnigan, CA 95937",38.931025,-121.94518,c(-121.94518, 38.931025)
"706","95943","11025","Glenn-Codora Fire Protection District","1516 Highway 45","Glenn","CA","1516 Highway 45 Glenn, CA 95943",39.605289,-122.03231,c(-122.03231, 39.605289)
"707","95943","11035","Ord Fire Protection District","3221 Highway 45","Glenn","CA","3221 Highway 45 Glenn, CA 95943",39.605289,-122.03231,c(-122.03231, 39.605289)
"708","95945","29005","Grass Valley Fire Department","125 E Main ST","Grass Valley","CA","125 E Main ST Grass Valley, CA 95945",39.202725,-121.02076,c(-121.02076, 39.202725)
"709","95945","29030","Peardale - Chicago Park Fire Protection District","18934 Colfax HWY","Grass Valley","CA","18934 Colfax HWY Grass Valley, CA 95945",39.202725,-121.02076,c(-121.02076, 39.202725)
"710","95946","29065","Penn Valley Fire Protection District","10513 Spenceville RD","Penn Valley","CA","10513 Spenceville RD Penn Valley, CA 95946",39.207828,-121.20021,c(-121.20021, 39.207828)
"711","95948","04015","Gridley City Fire Department","47 E Gridley RD","Gridley","CA","47 E Gridley RD Gridley, CA 95948",39.35217,-121.71129,c(-121.71129, 39.35217)
"712","95949","29015","Nevada County Consolidated Fire District","11329 McCourtney RD","Grass Valley","CA","11329 McCourtney RD Grass Valley, CA 95949",39.13255,-121.0981,c(-121.0981, 39.13255)
"713","95951","11060","Hamilton City Fire Protection District","420 1ST ST","Hamilton City","CA","420 1ST ST Hamilton City, CA 95951",39.738889,-122.01675,c(-122.01675, 39.738889)
"714","95955","06030","Maxwell Fire Protection District","231 W Oak ST","Maxwell","CA","231 W Oak ST Maxwell, CA 95955",39.283329,-122.20206,c(-122.20206, 39.283329)
"715","95956","32035","Meadow Valley Fire Department","6913 Bucks Lake RD","Meadow Valley","CA","6913 Bucks Lake RD Meadow Valley, CA 95956",39.93935,-121.06047,c(-121.06047, 39.93935)
"716","95959","","Graniteville Volunteer Fire Company","35401 Graniteville RD","Nevada City","CA","35401 Graniteville RD Nevada City, CA 95959",39.299405,-120.95144,c(-120.95144, 39.299405)
"717","95959","29040","Nevada City Fire Department","317 Broad ST","Nevada City","CA","317 Broad ST Nevada City, CA 95959",39.299405,-120.95144,c(-120.95144, 39.299405)
"718","95959","29050","North San Juan Fire Protection District","13200 Tyler Foote Xing RD","Nevada City","CA","13200 Tyler Foote Xing RD Nevada City, CA 95959",39.299405,-120.95144,c(-120.95144, 39.299405)
"719","95960","46012","Pliocene Ridge Community Services District (CSD)","100 Pike City RD","North San Juan","CA","100 Pike City RD North San Juan, CA 95960",39.396152,-121.08227,c(-121.08227, 39.396152)
"720","95961","58015","Olivehurst Public Utility District Fire Department","1962 9TH AVE","Olivehurst","CA","1962 9TH AVE Olivehurst, CA 95961",39.089929,-121.55053,c(-121.55053, 39.089929)
"721","95962","58003","Dobbins/Oregon House Fire Protection District","9162 Marysville Rd","Oregon House","CA","9162 Marysville Rd Oregon House, CA 95962",39.355688,-121.2548,c(-121.2548, 39.355688)
"722","95963","52015","Capay Fire Protection District","50 4TH AVE","Orland","CA","50 4TH AVE Orland, CA 95963",39.760968,-122.218,c(-122.218, 39.760968)
"723","95965","04035","Butte County Fire Department","176 Nelson AVE","Oroville","CA","176 Nelson AVE Oroville, CA 95965",39.558586,-121.58923,c(-121.58923, 39.558586)
"724","95966","04020","Oroville Fire Department","2055 Lincoln ST","Oroville","CA","2055 Lincoln ST Oroville, CA 95966",39.491076,-121.49468,c(-121.49468, 39.491076)
"725","95966","04025","El Medio Fire Department","3515 Myers ST","Oroville","CA","3515 Myers ST Oroville, CA 95966",39.491076,-121.49468,c(-121.49468, 39.491076)
"726","95966","04045","Berry Creek Rancheria Volunteer Fire Department","5 Tyme WAY","Oroville","CA","5 Tyme WAY Oroville, CA 95966",39.491076,-121.49468,c(-121.49468, 39.491076)
"727","95969","04030","Paradise Fire Department","767 Birch ST","Paradise","CA","767 Birch ST Paradise, CA 95969",39.750422,-121.61026,c(-121.61026, 39.750422)
"728","95970","06035","Princeton Volunteer Fire Department","342 Winter ST","Princeton","CA","342 Winter ST Princeton, CA 95970",39.415041,-122.02487,c(-122.02487, 39.415041)
"729","95971","32080","Bucks Lake Fire Department","16891 Bucks Lake RD","Quincy","CA","16891 Bucks Lake RD Quincy, CA 95971",39.957324,-120.98366,c(-120.98366, 39.957324)
"730","95971","32566","Plumas National Forest","159 Lawrence ST","Quincy","CA","159 Lawrence ST Quincy, CA 95971",39.957324,-120.98366,c(-120.98366, 39.957324)
"731","95971","32050","Quincy Fire Protection District","505 Lawrence ST","Quincy","CA","505 Lawrence ST Quincy, CA 95971",39.957324,-120.98366,c(-120.98366, 39.957324)
"732","95971","32022","Greenhorn Creek Fire Department","2049 Red Bluff TRL","Quincy","CA","2049 Red Bluff TRL Quincy, CA 95971",39.957324,-120.98366,c(-120.98366, 39.957324)
"733","95975","29055","Rough & Ready Fire Protection District","11042 Rough and Ready RD","Rough and Ready","CA","11042 Rough and Ready RD Rough and Ready, CA 95975",39.224179,-121.14539,c(-121.14539, 39.224179)
"734","95977","58020","Smartsville Fire Protection District","PO Box 395","Smartsville","CA","PO Box 395 Smartsville, CA 95977",39.19322,-121.28975,c(-121.28975, 39.19322)
"735","95979","06040","Bear Valley - Indian Valley Fire Department","5122 E Paris RD","Stonyford","CA","5122 E Paris RD Stonyford, CA 95979",39.331444,-122.47943,c(-122.47943, 39.331444)
"736","95986","29095","Washington Fire Department","15406 Washington RD","Washington","CA","15406 Washington RD Washington, CA 95986",39.340422,-120.79166,c(-120.79166, 39.340422)
"737","95987","06045","Williams Fire Protection Authority","810 E ST","Williams","CA","810 E ST Williams, CA 95987",39.139543,-122.20563,c(-122.20563, 39.139543)
"738","95988","11565","Mendocino National Forest Fire Service, USDA-","825 N Humboldt AVE","Willows","CA","825 N Humboldt AVE Willows, CA 95988",39.499754,-122.20773,c(-122.20773, 39.499754)
"739","95988","11055","Kanawha Fire Protection District","1709 County Road D","Willows","CA","1709 County Road D Willows, CA 95988",39.499754,-122.20773,c(-122.20773, 39.499754)
"740","95988","11065","Willows Rural Fire Protection District","445 S Butte ST","Willows","CA","445 S Butte ST Willows, CA 95988",39.499754,-122.20773,c(-122.20773, 39.499754)
"741","95991","51040","Yuba City Fire Department","824 Clark AVE","Yuba City","CA","824 Clark AVE Yuba City, CA 95991",39.114138,-121.6196,c(-121.6196, 39.114138)
"742","95993","51055","Sutter County Fire Department","1130 Civic Center Blvd STE E","Yuba City","CA","1130 Civic Center Blvd STE E Yuba City, CA 95993",39.109272,-121.68033,c(-121.68033, 39.109272)
"743","96001","45075","Keswick Volunteer Fire Company","16570 School ST","Redding","CA","16570 School ST Redding, CA 96001",40.56816,-122.41519,c(-122.41519, 40.56816)
"744","96001","45086","Shasta County Fire Department","875 Cypress AVE","Redding","CA","875 Cypress AVE Redding, CA 96001",40.56816,-122.41519,c(-122.41519, 40.56816)
"745","96001","45910","Centerville Volunteer Fire Company","8930 Placer RD","Redding","CA","8930 Placer RD Redding, CA 96001",40.56816,-122.41519,c(-122.41519, 40.56816)
"746","96001","45055","Redding Fire Department","777 Cypress AVE","California","CA","777 Cypress AVE California, CA 96001",40.56816,-122.41519,c(-122.41519, 40.56816)
"747","96002","45555","Shasta Trinity National Forest","3644 Avtech PKWY","Redding","CA","3644 Avtech PKWY Redding, CA 96002",40.539302,-122.33279,c(-122.33279, 40.539302)
"748","96006","25005","Adin Fire Protection District","108 Center ST","Adin","CA","108 Center ST Adin, CA 96006",41.190742,-120.90294,c(-120.90294, 41.190742)
"749","96007","45010","Anderson Fire Protection District","1925  Howard ST","Anderson","CA","1925  Howard ST Anderson, CA 96007",40.45453,-122.31101,c(-122.31101, 40.45453)
"750","96007","45015","Happy Valley Fire Protection District","17441 Palm AVE","Anderson","CA","17441 Palm AVE Anderson, CA 96007",40.45453,-122.31101,c(-122.31101, 40.45453)
"751","96009","18010","Big Valley Fire Protection District/ Bieber Fire Department","Market and Park ST","Bieber","CA","Market and Park ST Bieber, CA 96009",41.119727,-121.1362,c(-121.1362, 41.119727)
"752","96010","53002","Downriver Volunteer Fire Company","70 Fire House RD","Big Bar","CA","70 Fire House RD Big Bar, CA 96010",40.723792,-123.34016,c(-123.34016, 40.723792)
"753","96011","45970","Big Bend Volunteer Fire Company 70","25035 Big Bend RD","Big Bend","CA","25035 Big Bend RD Big Bend, CA 96011",41.027553,-121.91847,c(-121.91847, 41.027553)
"754","96013","45020","Burney Fire Protection District","37072 Main ST","Burney","CA","37072 Main ST Burney, CA 96013",40.926289,-121.68452,c(-121.68452, 40.926289)
"755","96015","25020","Canby Volunteer Fire Department","Main ST","Canby","CA","Main ST Canby, CA 96015",41.425912,-120.90316,c(-120.90316, 41.425912)
"756","96016","45905","Cassel Volunteer Fire Department (Shasta County Fire)","PO Box 177","Cassel","CA","PO Box 177 Cassel, CA 96016",40.929301,-121.55711,c(-121.55711, 40.929301)
"757","96017","45025","Castella Fire Protection District","29382 Main ST","Castella","CA","29382 Main ST Castella, CA 96017",41.109487,-122.33133,c(-122.33133, 41.109487)
"758","96019","45030","Shasta Lake Fire Protection District","4126 Ashby CT","Shasta Lake","CA","4126 Ashby CT Shasta Lake, CA 96019",40.682393,-122.36824,c(-122.36824, 40.682393)
"759","96020","32010","Chester Fire Department","251 Chester Airport RD","Chester","CA","251 Chester Airport RD Chester, CA 96020",40.289788,-121.23263,c(-121.23263, 40.289788)
"760","96020","32042","West Almanor CSD","947 Long Iron DR","Chester","CA","947 Long Iron DR Chester, CA 96020",40.289788,-121.23263,c(-121.23263, 40.289788)
"761","96021","52005","Corning Volunteer Fire Department","814 5TH ST","Corning","CA","814 5TH ST Corning, CA 96021",39.918271,-122.21393,c(-122.21393, 39.918271)
"762","96022","45035","Cottonwood Fire Protection District","3271 Brush ST","Cottonwood","CA","3271 Brush ST Cottonwood, CA 96022",40.360583,-122.33544,c(-122.33544, 40.360583)
"763","96023","47100","Pleasant Valley Fire Company","2543 Durham DR","Dorris","CA","2543 Durham DR Dorris, CA 96023",41.963883,-121.89165,c(-121.89165, 41.963883)
"764","96024","53001","Douglas City Fire Department","Steiner Flat RD","Douglas City","CA","Steiner Flat RD Douglas City, CA 96024",40.606673,-122.92335,c(-122.92335, 40.606673)
"765","96025","47010","Dunsmuir Fire Department","5902 Dunsmuir AVE","Dunsmuir","CA","5902 Dunsmuir AVE Dunsmuir, CA 96025",41.221077,-122.28003,c(-122.28003, 41.221077)
"766","96027","47020","Etna Fire Department","400 Main ST","Etna","CA","400 Main ST Etna, CA 96027",41.414707,-122.96832,c(-122.96832, 41.414707)
"767","96028","45040","Fall River Mills Fire Department","43155 Highway 299 E","Fall River Mills","CA","43155 Highway 299 E Fall River Mills, CA 96028",41.056097,-121.49021,c(-121.49021, 41.056097)
"768","96032","47135","Quartz Valley Reservation Fire Department","9250 Thaxtuuy","Fort Jones","CA","9250 Thaxtuuy Fort Jones, CA 96032",41.615475,-122.87744,c(-122.87744, 41.615475)
"769","96032","47025","Fort Jones Volunteer Fire Department","31 Newton ST","Fort Jones","CA","31 Newton ST Fort Jones, CA 96032",41.615475,-122.87744,c(-122.87744, 41.615475)
"770","96034","47030","Gazelle Fire Protection District","18338 Old Highway 99","Gazelle","CA","18338 Old Highway 99 Gazelle, CA 96034",41.441194,-122.64688,c(-122.64688, 41.441194)
"771","96035","52010","Gerber Fire Department","327 San Benito AVE","Gerber","CA","327 San Benito AVE Gerber, CA 96035",40.039257,-122.16555,c(-122.16555, 40.039257)
"772","96037","47120","Scott Valley Fire Protection District","317 Maple ST","Greenview","CA","317 Maple ST Greenview, CA 96037",41.53101,-122.95666,c(-122.95666, 41.53101)
"773","96038","47095","Grenada Fire Protection District","6055 4TH AVE","Grenada","CA","6055 4TH AVE Grenada, CA 96038",41.604392,-122.52666,c(-122.52666, 41.604392)
"774","96039","47035","Happy Camp Ranger District, Klamath N.F. USFS","63822 ST HWY 96","Happy Camp","CA","63822 ST HWY 96 Happy Camp, CA 96039",41.82087,-123.43126,c(-123.43126, 41.82087)
"775","96040","45920","Hat Creek Volunteer Fire Department","17771 Highway 89","Hat Creek","CA","17771 Highway 89 Hat Creek, CA 96040",40.788512,-121.47668,c(-121.47668, 40.788512)
"776","96041","53005","Hayfork Volunteer Fire Department","195 Hyampom RD","Hayfork","CA","195 Hyampom RD Hayfork, CA 96041",40.524496,-123.18307,c(-123.18307, 40.524496)
"777","96044","47040","Hornbrook Volunteer Fire District","16100 Front ST","Hornbrook","CA","16100 Front ST Hornbrook, CA 96044",41.925752,-122.52253,c(-122.52253, 41.925752)
"778","96046","53008","Hyampon Volunteer Fire Department","14 Main ST","Hyampon","CA","14 Main ST Hyampon, CA 96046",40.639108,-123.47525,c(-123.47525, 40.639108)
"779","96047","45925","Igo-Ono Volunteer Fire Company","South Frok Rd RD","Igo","CA","South Frok Rd RD Igo, CA 96047",40.472993,-122.63707,c(-122.63707, 40.472993)
"780","96048","53025","Junction City Volunteer Fire Department","Dutch Creek RD","Junction City","CA","Dutch Creek RD Junction City, CA 96048",40.850776,-122.92043,c(-122.92043, 40.850776)
"781","96049","45095","Shasta College Fire Department","11555 Old Oregon Trl","Redding","CA","11555 Old Oregon Trl Redding, CA 96049",40.709783,-122.311628,c(-122.311628, 40.709783)
"782","96050","47043","Klamath River Volunteer Fire Company","29820 Walker RD","Horsecreek","CA","29820 Walker RD Horsecreek, CA 96050",41.831947,-122.9206,c(-122.9206, 41.831947)
"783","96051","45960","Lakehead Volunteer Fire Company","20808 Mammoth DR","Lakehead","CA","20808 Mammoth DR Lakehead, CA 96051",40.939342,-122.42246,c(-122.42246, 40.939342)
"784","96052","53010","Lewiston Fire Department","200 Texas AVE","Lewiston","CA","200 Texas AVE Lewiston, CA 96052",40.743423,-122.81414,c(-122.81414, 40.743423)
"785","96056","18021","Little Valley Volunteer Fire Department","653-305 Seymour DR","Little Valley","CA","653-305 Seymour DR Little Valley, CA 96056",41.114424,-121.332,c(-121.332, 41.114424)
"786","96056","45975","McArthur Volunteer Fire Department","44283 Highway 299 E","Mc Arthur","CA","44283 Highway 299 E Mc Arthur, CA 96056",41.114424,-121.332,c(-121.332, 41.114424)
"787","96057","47050","McCloud Volunteer Fire Department","319 Tucci AVE","McCloud","CA","319 Tucci AVE McCloud, CA 96057",41.263103,-122.10297,c(-122.10297, 41.263103)
"788","96058","47045","Butte Valley Fire Protection District","12320 Old State HWY","Macdoel","CA","12320 Old State HWY Macdoel, CA 96058",41.790562,-121.94214,c(-121.94214, 41.790562)
"789","96058","47130","Tennant Volunteer Fire Department","13515 Tennant RD","Macdoel","CA","13515 Tennant RD Macdoel, CA 96058",41.790562,-121.94214,c(-121.94214, 41.790562)
"790","96062","45935","Millville Fire Protection District","23963 Whitmore RD","Millville","CA","23963 Whitmore RD Millville, CA 96062",40.577799,-122.10148,c(-122.10148, 40.577799)
"791","96064","47055","Montague Fire Department","121 S 10TH ST","Montague","CA","121 S 10TH ST Montague, CA 96064",41.736424,-122.40008,c(-122.40008, 41.736424)
"792","96064","47067","Mount Shasta Vista Volunteer Fire Company","13502 Roland DR","Montague","CA","13502 Roland DR Montague, CA 96064",41.736424,-122.40008,c(-122.40008, 41.736424)
"793","96064","47048","Mayten Fire District","7427 HWY A-12","Montague","CA","7427 HWY A-12 Montague, CA 96064",41.736424,-122.40008,c(-122.40008, 41.736424)
"794","96064","47054","Copco Lake Fire Department","27805 Copco RD","Montague","CA","27805 Copco RD Montague, CA 96064",41.736424,-122.40008,c(-122.40008, 41.736424)
"795","96065","45940","Montgomery Creek Volunteer Fire Company","29876 Highway 299 E","Montgomery Creek","CA","29876 Highway 299 E Montgomery Creek, CA 96065",40.876184,-121.88975,c(-121.88975, 40.876184)
"796","96067","47065","Mount Shasta Fire Protection District","600 Michelle DR","Mount Shasta","CA","600 Michelle DR Mount Shasta, CA 96067",41.317771,-122.31207,c(-122.31207, 41.317771)
"797","96067","47060","Mount Shasta City Fire Department","305 N Mount Shasta BLVD","Mount Shasta","CA","305 N Mount Shasta BLVD Mount Shasta, CA 96067",41.317771,-122.31207,c(-122.31207, 41.317771)
"798","96076","45087","Platina/ Wildwood Fire Rescue","PO Box 193","Wildwood","CA","PO Box 193 Wildwood, CA 96076",40.366349,-122.94566,c(-122.94566, 40.366349)
"799","96080","52030","Tehama County Fire Department","604 Antelope BLVD","Red Bluff","CA","604 Antelope BLVD Red Bluff, CA 96080",40.183837,-122.24074,c(-122.24074, 40.183837)
"800","96080","52020","City of Red Bluff Fire Department","555 Washington ST","Red Bluff","CA","555 Washington ST Red Bluff, CA 96080",40.183837,-122.24074,c(-122.24074, 40.183837)
"801","96080","52555","CDF-Tehama/Glenn Unit","604 Antelope BLVD","Red Bluff","CA","604 Antelope BLVD Red Bluff, CA 96080",40.183837,-122.24074,c(-122.24074, 40.183837)
"802","96086","47070","Seiad Valley Volunteer Fire Department","44601 HWY 96","Seiad Valley","CA","44601 HWY 96 Seiad Valley, CA 96086",41.86235,-123.24091,c(-123.24091, 41.86235)
"803","96091","53015","Trinity Center Volunteer Fire Department","111 Trinity Vista","Trinity Center","CA","111 Trinity Vista Trinity Center, CA 96091",41.004651,-122.71541,c(-122.71541, 41.004651)
"804","96091","53568","Coffee Creek Volunteer Fire Department","HC 2, Box 3951","Trinity Center","CA","HC 2, Box 3951 Trinity Center, CA 96091",41.004651,-122.71541,c(-122.71541, 41.004651)
"805","96093","53567","U.S. Forest Service-Trinity River Managment Unit","210 W Main SQ","Weaverville","CA","210 W Main SQ Weaverville, CA 96093",40.734483,-122.93982,c(-122.93982, 40.734483)
"806","96093","53020","Weaverville Fire Department","125 Bremer ST","Weaverville","CA","125 Bremer ST Weaverville, CA 96093",40.734483,-122.93982,c(-122.93982, 40.734483)
"807","96094","47910","Lake Shastina Fire Department","16309 Everhart DR","Weed","CA","16309 Everhart DR Weed, CA 96094",41.460403,-122.38544,c(-122.38544, 41.460403)
"808","96094","47080","Weed City Fire Department","128 Roseburg PKWY","Weed","CA","128 Roseburg PKWY Weed, CA 96094",41.460403,-122.38544,c(-122.38544, 41.460403)
"809","96094","47038","Hammond Ranch Fire Zone","8800 N Old Stage RD","Weed","CA","8800 N Old Stage RD Weed, CA 96094",41.460403,-122.38544,c(-122.38544, 41.460403)
"810","96097","47085","Yreka Volunteer Fire Department","401 W Miner","Yreka","CA","401 W Miner Yreka, CA 96097",41.749249,-122.64479,c(-122.64479, 41.749249)
"811","96097","47115","South Yreka Fire Protection District","3420 Easy ST","Yreka","CA","3420 Easy ST Yreka, CA 96097",41.749249,-122.64479,c(-122.64479, 41.749249)
"812","96101","25010","City of Alturas Fire Department","103 S Howard ST","Alturas","CA","103 S Howard ST Alturas, CA 96101",41.439363,-120.58771,c(-120.58771, 41.439363)
"813","96101","25007","Alturas Indian Rancheria OES","901 County RD 56","Alturas","CA","901 County RD 56 Alturas, CA 96101",41.439363,-120.58771,c(-120.58771, 41.439363)
"814","96101","25018","California Pines Volunteer Fire Department","Co Rd 71 HCR 4","Alturas","CA","Co Rd 71 HCR 4 Alturas, CA 96101",41.439363,-120.58771,c(-120.58771, 41.439363)
"815","96101","25015","Alturas Rural Fire Protection District","310 N Rine ST","Alturas","CA","310 N Rine ST Alturas, CA 96101",41.439363,-120.58771,c(-120.58771, 41.439363)
"816","96103","32020","Graeagle Fire Protection District","7620 Highway 89","Graeagle","CA","7620 Highway 89 Graeagle, CA 96103",39.779486,-120.64058,c(-120.64058, 39.779486)
"817","96103","32032","Long Valley Volunteer Fire Department","58880 Highway 70","Cromberg","CA","58880 Highway 70 Cromberg, CA 96103",39.779486,-120.64058,c(-120.64058, 39.779486)
"818","96103","32008","C Road Volunteer Fire Department","C road & Road 9","Blairsden","CA","C road & Road 9 Blairsden, CA 96103",39.779486,-120.64058,c(-120.64058, 39.779486)
"819","96103","32043","Plumas Eureka Fire & Rescue","200 Lundy LN","Blairsden","CA","200 Lundy LN Blairsden, CA 96103",39.779486,-120.64058,c(-120.64058, 39.779486)
"820","96104","25025","Cedarville Fire Protection District","461 Main ST","Cedarville","CA","461 Main ST Cedarville, CA 96104",41.527226,-120.13826,c(-120.13826, 41.527226)
"821","96105","32060","Sierra Valley Volunteer Fire Department","PO Box 211","Chilcoot","CA","PO Box 211 Chilcoot, CA 96105",39.862832,-120.17303,c(-120.17303, 39.862832)
"822","96107","26015","Antelope Valley Fire District","51 Shop RD","Coleville","CA","51 Shop RD Coleville, CA 96107",38.475853,-119.49014,c(-119.49014, 38.475853)
"823","96108","25030","Davis Creek Volunteer Fire Department","1130 County Road 133B","Davis Creek","CA","1130 County Road 133B Davis Creek, CA 96108",41.736074,-120.3778,c(-120.3778, 41.736074)
"824","96109","18015","Doyle Fire Protection District","747-150 E Main ST","Doyle","CA","747-150 E Main ST Doyle, CA 96109",40.030098,-120.11304,c(-120.11304, 40.030098)
"825","96112","25040","Fort Bidwell Indian Community Council","130 Meetheeuh Road","Fort Bidwell","CA","130 Meetheeuh Road Fort Bidwell, CA 96112",41.90749,-120.14789,c(-120.14789, 41.90749)
"826","96113","18017","Herlong Volunteer Fire Department","PO Box 911","Herlong","CA","PO Box 911 Herlong, CA 96113",40.158794,-120.18597,c(-120.18597, 40.158794)
"827","96113","AF024","Sierra Army Depot Fire & Emergency Sevices","P-2 1st ST","Herlong","CA","P-2 1st ST Herlong, CA 96113",40.158794,-120.18597,c(-120.18597, 40.158794)
"828","96116","25050","Likely Volunteer Fire Protection District","3275 Highway 395","Likely","CA","3275 Highway 395 Likely, CA 96116",41.268746,-120.42843,c(-120.42843, 41.268746)
"829","96118","46010","City of Loyalton Fire Department","206 Front ST","Loyalton","CA","206 Front ST Loyalton, CA 96118",39.663256,-120.24835,c(-120.24835, 39.663256)
"830","96119","18025","Madeline Fire Protection District","711-900 Lassen ST","Madeline","CA","711-900 Lassen ST Madeline, CA 96119",41.021344,-120.52472,c(-120.52472, 41.021344)
"831","96120","02020","Woodfords Fire Department","60 Diamond Valley RD","Markleeville","CA","60 Diamond Valley RD Markleeville, CA 96120",38.76467,-119.85236,c(-119.85236, 38.76467)
"832","96120","02015","Markleeville Volunteer Fire Department","750 Hot Springs RD","Markleeville","CA","750 Hot Springs RD Markleeville, CA 96120",38.76467,-119.85236,c(-119.85236, 38.76467)
"833","96121","18075","Milford Fire District","450-075 Laufman Grade RD","Milford","CA","450-075 Laufman Grade RD Milford, CA 96121",40.169038,-120.37815,c(-120.37815, 40.169038)
"834","96122","32040","Portola Volunteer Fire Department","316 1ST AVE","Portola","CA","316 1ST AVE Portola, CA 96122",39.801047,-120.48359,c(-120.48359, 39.801047)
"835","96122","32075","Eastern Plumas Rural Fire Protection District","141 Delleker RD","Portola","CA","141 Delleker RD Portola, CA 96122",39.801047,-120.48359,c(-120.48359, 39.801047)
"836","96124","","Calpine Volunteer Fire Department","129 Canty RD","Calpine","CA","129 Canty RD Calpine, CA 96124",39.663242,-120.43806,c(-120.43806, 39.663242)
"837","96125","46015","Sierra City Fire District","229 Main St. HWY","Sierra City","CA","229 Main St. HWY Sierra City, CA 96125",39.598792,-120.63432,c(-120.63432, 39.598792)
"838","96126","46020","Sierra County Fire Protection District #1","202 E Main ST","Sierraville","CA","202 E Main ST Sierraville, CA 96126",39.560357,-120.35662,c(-120.35662, 39.560357)
"839","96126","46555","East Zone Tahoe National Forest Fire Department","317 Lincoln S","Sierraville","CA","317 Lincoln S Sierraville, CA 96126",39.560357,-120.35662,c(-120.35662, 39.560357)
"840","96128","18030","Standish Litchfield Fire Protection District","PO Box 120","Standish","CA","PO Box 120 Standish, CA 96128",40.34863,-120.4065,c(-120.4065, 40.34863)
"841","96129","32005","Beckwourth Volunteer Fire Department","180 Main ST","Beckwourth","CA","180 Main ST Beckwourth, CA 96129",39.772064,-120.405095,c(-120.405095, 39.772064)
"842","96130","18410","California Correctional Center Fire Department","711-045 Center RD","Susanville","CA","711-045 Center RD Susanville, CA 96130",40.474951,-120.67685,c(-120.67685, 40.474951)
"843","96130","18035","Susanville Fire Department","1505 Main ST","Susanville","CA","1505 Main ST Susanville, CA 96130",40.474951,-120.67685,c(-120.67685, 40.474951)
"844","96130","18065","Spalding Community Services District Fire Department","502-907 Mahogany WAY","Susanville","CA","502-907 Mahogany WAY Susanville, CA 96130",40.474951,-120.67685,c(-120.67685, 40.474951)
"845","96130","18040","Susan River Fire Protection District","472-355 Richmond RD N","Susanville","CA","472-355 Richmond RD N Susanville, CA 96130",40.474951,-120.67685,c(-120.67685, 40.474951)
"846","96130","18068","Stones-Bengard Community Service District","509-695 Stone RD, Eagle Lake","Susanville","CA","509-695 Stone RD, Eagle Lake Susanville, CA 96130",40.474951,-120.67685,c(-120.67685, 40.474951)
"847","96130","18070","Lake Forest Fire Protection District","691-200 Janet Way","Susanville","CA","691-200 Janet Way Susanville, CA 96130",40.474951,-120.67685,c(-120.67685, 40.474951)
"848","96130","18555","Lassen National Forest Fire & Aviation","2550 Riverside DR","Susanville","CA","2550 Riverside DR Susanville, CA 96130",40.474951,-120.67685,c(-120.67685, 40.474951)
"849","96134","47075","Tulelake Multi County Fire District","1 Ray Oehlerich WAY","Tulelake","CA","1 Ray Oehlerich WAY Tulelake, CA 96134",41.874847,-121.43738,c(-121.43738, 41.874847)
"850","96137","32070","Peninsula Fire Protection District","801 Golf Club RD","Lake Almanor","CA","801 Golf Club RD Lake Almanor, CA 96137",40.290007,-121.05272,c(-121.05272, 40.290007)
"851","96137","18045","Clear Creek Fire Department","HWY 147 Clear Creek","Westwood","CA","HWY 147 Clear Creek Westwood, CA 96137",40.290007,-121.05272,c(-121.05272, 40.290007)
"852","96137","18050","Westwood Fire Department","206 3rd ST","Westwood","CA","206 3rd ST Westwood, CA 96137",40.290007,-121.05272,c(-121.05272, 40.290007)
"853","96137","32065","Hamilton Branch Fire Protection District","3791 Big Springs RD","Lake Almanor","CA","3791 Big Springs RD Lake Almanor, CA 96137",40.290007,-121.05272,c(-121.05272, 40.290007)
"854","96145","31044","North Tahoe Fire Protection District","222 Fairway DR","Tahoe City","CA","222 Fairway DR Tahoe City, CA 96145",39.177383,-120.14607,c(-120.14607, 39.177383)
"855","96146","31070","Squaw Valley Fire Department","305 Squaw Valley RD","Olympic Valley","CA","305 Squaw Valley RD Olympic Valley, CA 96146",39.180983,-120.21804,c(-120.21804, 39.180983)
"856","96150","09065","Lake Valley Fire Protection District","2211 Keetak ST","South Lake Tahoe","CA","2211 Keetak ST South Lake Tahoe, CA 96150",38.908741,-120.00992,c(-120.00992, 38.908741)
"857","96150","09060","South Lake Tahoe Fire Department Station 3","2101 Lake Tahoe BLVD","South Lake Tahoe","CA","2101 Lake Tahoe BLVD South Lake Tahoe, CA 96150",38.908741,-120.00992,c(-120.00992, 38.908741)
"858","96158","09017","Fallen Leaf Fire Department","241 Fallen Leaf RD","South Lake Tahoe","CA","241 Fallen Leaf RD South Lake Tahoe, CA 96158",38.898142,-119.998419,c(-119.998419, 38.898142)
"859","96161","31115","Northstar Fire Department","910 Northstar DR","Truckee","CA","910 Northstar DR Truckee, CA 96161",39.339574,-120.22805,c(-120.22805, 39.339574)
"860","96161","29060","Truckee Fire Protection District","10049 Donner Pass RD","Truckee","CA","10049 Donner Pass RD Truckee, CA 96161",39.339574,-120.22805,c(-120.22805, 39.339574)
